{
"type": "FeatureCollection",
"name": "retrogression_adaptive_-_accuracy_priority_streams_subset_5",
"crs": { "type": "name", "properties": { "name": "urn:ogc:def:crs:EPSG::25833" } },
"features": [
{ "type": "Feature", "properties": { "id": 1, "slope": 1 }, "geometry": { "type": "Polygon", "coordinates": [ [ [ 258156.882084265263984, 7041737.744974631816149 ], [ 258156.882084265263984, 7041732.741784041747451 ], [ 258126.862940725579392, 7041732.741784041747451 ], [ 258126.862940725579392, 7041727.738593451678753 ], [ 258111.853368955751648, 7041727.738593451678753 ], [ 258111.853368955751648, 7041722.735402861610055 ], [ 258081.834225416067056, 7041722.735402861610055 ], [ 258081.834225416067056, 7041717.732212271541357 ], [ 258056.818272466334747, 7041717.732212271541357 ], [ 258056.818272466334747, 7041712.729021681472659 ], [ 258006.786366566841025, 7041712.729021681472659 ], [ 258006.786366566841025, 7041717.732212271541357 ], [ 257996.779985386965564, 7041717.732212271541357 ], [ 257996.779985386965564, 7041722.735402861610055 ], [ 257981.770413617108716, 7041722.735402861610055 ], [ 257981.770413617108716, 7041717.732212271541357 ], [ 257966.760841847280972, 7041717.732212271541357 ], [ 257966.760841847280972, 7041712.729021681472659 ], [ 257961.757651257328689, 7041712.729021681472659 ], [ 257961.757651257328689, 7041702.722640502266586 ], [ 257956.754460667376406, 7041702.722640502266586 ], [ 257956.754460667376406, 7041692.71625932212919 ], [ 257951.751270077424124, 7041692.71625932212919 ], [ 257951.751270077424124, 7041677.706687551923096 ], [ 257946.748079487500945, 7041677.706687551923096 ], [ 257946.748079487500945, 7041662.697115782648325 ], [ 257941.744888897548662, 7041662.697115782648325 ], [ 257941.744888897548662, 7041652.690734602510929 ], [ 257936.74169830759638, 7041652.690734602510929 ], [ 257936.74169830759638, 7041657.693925192579627 ], [ 257921.732126537768636, 7041657.693925192579627 ], [ 257921.732126537768636, 7041652.690734602510929 ], [ 257916.728935947816353, 7041652.690734602510929 ], [ 257916.728935947816353, 7041647.687544012442231 ], [ 257911.725745357864071, 7041647.687544012442231 ], [ 257911.725745357864071, 7041642.684353422373533 ], [ 257906.722554767911788, 7041642.684353422373533 ], [ 257906.722554767911788, 7041637.681162832304835 ], [ 257901.719364177959505, 7041637.681162832304835 ], [ 257901.719364177959505, 7041632.67797224316746 ], [ 257896.716173588007223, 7041632.67797224316746 ], [ 257896.716173588007223, 7041627.674781653098762 ], [ 257891.712982998084044, 7041627.674781653098762 ], [ 257891.712982998084044, 7041622.671591063030064 ], [ 257886.709792408131761, 7041622.671591063030064 ], [ 257886.709792408131761, 7041617.668400472961366 ], [ 257881.706601818179479, 7041617.668400472961366 ], [ 257881.706601818179479, 7041612.665209882892668 ], [ 257876.703411228227196, 7041612.665209882892668 ], [ 257876.703411228227196, 7041607.66201929282397 ], [ 257871.700220638274914, 7041607.66201929282397 ], [ 257871.700220638274914, 7041602.658828702755272 ], [ 257866.697030048351735, 7041602.658828702755272 ], [ 257866.697030048351735, 7041597.655638112686574 ], [ 257861.693839458399452, 7041597.655638112686574 ], [ 257861.693839458399452, 7041602.658828702755272 ], [ 257856.69064886844717, 7041602.658828702755272 ], [ 257856.69064886844717, 7041612.665209882892668 ], [ 257851.687458278494887, 7041612.665209882892668 ], [ 257851.687458278494887, 7041617.668400472961366 ], [ 257846.684267688542604, 7041617.668400472961366 ], [ 257846.684267688542604, 7041622.671591063030064 ], [ 257841.681077098590322, 7041622.671591063030064 ], [ 257841.681077098590322, 7041627.674781653098762 ], [ 257836.677886508667143, 7041627.674781653098762 ], [ 257836.677886508667143, 7041632.67797224316746 ], [ 257831.67469591871486, 7041632.67797224316746 ], [ 257831.67469591871486, 7041627.674781653098762 ], [ 257826.671505328762578, 7041627.674781653098762 ], [ 257826.671505328762578, 7041622.671591063030064 ], [ 257821.668314738810295, 7041622.671591063030064 ], [ 257821.668314738810295, 7041617.668400472961366 ], [ 257816.665124148858013, 7041617.668400472961366 ], [ 257816.665124148858013, 7041612.665209882892668 ], [ 257791.649171199125703, 7041612.665209882892668 ], [ 257791.649171199125703, 7041617.668400472961366 ], [ 257781.642790019250242, 7041617.668400472961366 ], [ 257781.642790019250242, 7041607.66201929282397 ], [ 257771.636408839345677, 7041607.66201929282397 ], [ 257771.636408839345677, 7041597.655638112686574 ], [ 257766.633218249393394, 7041597.655638112686574 ], [ 257766.633218249393394, 7041592.652447523549199 ], [ 257761.630027659441112, 7041592.652447523549199 ], [ 257761.630027659441112, 7041587.649256933480501 ], [ 257756.626837069517933, 7041587.649256933480501 ], [ 257756.626837069517933, 7041567.636494573205709 ], [ 257761.630027659441112, 7041567.636494573205709 ], [ 257761.630027659441112, 7041552.626922803930938 ], [ 257756.626837069517933, 7041552.626922803930938 ], [ 257756.626837069517933, 7041547.62373221386224 ], [ 257751.62364647956565, 7041547.62373221386224 ], [ 257751.62364647956565, 7041542.620541623793542 ], [ 257741.617265299661085, 7041542.620541623793542 ], [ 257741.617265299661085, 7041532.614160443656147 ], [ 257736.614074709708802, 7041532.614160443656147 ], [ 257736.614074709708802, 7041527.610969853587449 ], [ 257731.61088411975652, 7041527.610969853587449 ], [ 257731.61088411975652, 7041492.588635724037886 ], [ 257726.607693529833341, 7041492.588635724037886 ], [ 257726.607693529833341, 7041482.58225454390049 ], [ 257716.601312349928776, 7041482.58225454390049 ], [ 257716.601312349928776, 7041477.579063954763114 ], [ 257711.598121759976493, 7041477.579063954763114 ], [ 257711.598121759976493, 7041472.575873364694417 ], [ 257716.601312349928776, 7041472.575873364694417 ], [ 257716.601312349928776, 7041467.572682774625719 ], [ 257721.604502939881058, 7041467.572682774625719 ], [ 257721.604502939881058, 7041462.569492184557021 ], [ 257731.61088411975652, 7041462.569492184557021 ], [ 257731.61088411975652, 7041452.563111004419625 ], [ 257736.614074709708802, 7041452.563111004419625 ], [ 257736.614074709708802, 7041447.559920414350927 ], [ 257741.617265299661085, 7041447.559920414350927 ], [ 257741.617265299661085, 7041437.553539235144854 ], [ 257746.620455889613368, 7041437.553539235144854 ], [ 257746.620455889613368, 7041432.550348645076156 ], [ 257751.62364647956565, 7041432.550348645076156 ], [ 257751.62364647956565, 7041422.54396746493876 ], [ 257756.626837069517933, 7041422.54396746493876 ], [ 257756.626837069517933, 7041417.540776874870062 ], [ 257761.630027659441112, 7041417.540776874870062 ], [ 257761.630027659441112, 7041412.537586284801364 ], [ 257766.633218249393394, 7041412.537586284801364 ], [ 257766.633218249393394, 7041402.531205105595291 ], [ 257771.636408839345677, 7041402.531205105595291 ], [ 257771.636408839345677, 7041397.528014515526593 ], [ 257781.642790019250242, 7041397.528014515526593 ], [ 257781.642790019250242, 7041392.524823925457895 ], [ 257821.668314738810295, 7041392.524823925457895 ], [ 257821.668314738810295, 7041387.521633335389197 ], [ 257816.665124148858013, 7041387.521633335389197 ], [ 257816.665124148858013, 7041382.518442745320499 ], [ 257811.661933558934834, 7041382.518442745320499 ], [ 257811.661933558934834, 7041377.515252155251801 ], [ 257816.665124148858013, 7041377.515252155251801 ], [ 257816.665124148858013, 7041362.50568038597703 ], [ 257821.668314738810295, 7041362.50568038597703 ], [ 257821.668314738810295, 7041352.499299205839634 ], [ 257826.671505328762578, 7041352.499299205839634 ], [ 257826.671505328762578, 7041332.486536845564842 ], [ 257821.668314738810295, 7041332.486536845564842 ], [ 257821.668314738810295, 7041322.480155666358769 ], [ 257816.665124148858013, 7041322.480155666358769 ], [ 257816.665124148858013, 7041312.473774486221373 ], [ 257806.658742968982551, 7041312.473774486221373 ], [ 257806.658742968982551, 7041302.467393306083977 ], [ 257801.655552379030269, 7041302.467393306083977 ], [ 257801.655552379030269, 7041297.464202716015279 ], [ 257806.658742968982551, 7041297.464202716015279 ], [ 257806.658742968982551, 7041292.461012125946581 ], [ 257961.757651257328689, 7041292.461012125946581 ], [ 257961.757651257328689, 7041302.467393306083977 ], [ 257956.754460667376406, 7041302.467393306083977 ], [ 257956.754460667376406, 7041362.50568038597703 ], [ 257961.757651257328689, 7041362.50568038597703 ], [ 257961.757651257328689, 7041387.521633335389197 ], [ 257966.760841847280972, 7041387.521633335389197 ], [ 257966.760841847280972, 7041392.524823925457895 ], [ 257971.764032437233254, 7041392.524823925457895 ], [ 257971.764032437233254, 7041402.531205105595291 ], [ 257976.767223027185537, 7041402.531205105595291 ], [ 257976.767223027185537, 7041412.537586284801364 ], [ 257971.764032437233254, 7041412.537586284801364 ], [ 257971.764032437233254, 7041422.54396746493876 ], [ 257966.760841847280972, 7041422.54396746493876 ], [ 257966.760841847280972, 7041432.550348645076156 ], [ 257961.757651257328689, 7041432.550348645076156 ], [ 257961.757651257328689, 7041437.553539235144854 ], [ 257956.754460667376406, 7041437.553539235144854 ], [ 257956.754460667376406, 7041467.572682774625719 ], [ 257961.757651257328689, 7041467.572682774625719 ], [ 257961.757651257328689, 7041482.58225454390049 ], [ 257956.754460667376406, 7041482.58225454390049 ], [ 257956.754460667376406, 7041487.585445133969188 ], [ 257946.748079487500945, 7041487.585445133969188 ], [ 257946.748079487500945, 7041492.588635724037886 ], [ 257951.751270077424124, 7041492.588635724037886 ], [ 257951.751270077424124, 7041497.591826314106584 ], [ 257956.754460667376406, 7041497.591826314106584 ], [ 257956.754460667376406, 7041502.595016904175282 ], [ 257961.757651257328689, 7041502.595016904175282 ], [ 257961.757651257328689, 7041507.598207494243979 ], [ 257966.760841847280972, 7041507.598207494243979 ], [ 257966.760841847280972, 7041512.601398084312677 ], [ 257971.764032437233254, 7041512.601398084312677 ], [ 257971.764032437233254, 7041517.604588674381375 ], [ 257976.767223027185537, 7041517.604588674381375 ], [ 257976.767223027185537, 7041522.607779263518751 ], [ 257981.770413617108716, 7041522.607779263518751 ], [ 257981.770413617108716, 7041527.610969853587449 ], [ 257986.773604207060998, 7041527.610969853587449 ], [ 257986.773604207060998, 7041522.607779263518751 ], [ 258006.786366566841025, 7041522.607779263518751 ], [ 258006.786366566841025, 7041517.604588674381375 ], [ 258016.79274774674559, 7041517.604588674381375 ], [ 258016.79274774674559, 7041507.598207494243979 ], [ 258021.795938336697873, 7041507.598207494243979 ], [ 258021.795938336697873, 7041502.595016904175282 ], [ 258026.799128926650155, 7041502.595016904175282 ], [ 258026.799128926650155, 7041497.591826314106584 ], [ 258031.802319516602438, 7041497.591826314106584 ], [ 258031.802319516602438, 7041482.58225454390049 ], [ 258026.799128926650155, 7041482.58225454390049 ], [ 258026.799128926650155, 7041462.569492184557021 ], [ 258021.795938336697873, 7041462.569492184557021 ], [ 258021.795938336697873, 7041452.563111004419625 ], [ 258016.79274774674559, 7041452.563111004419625 ], [ 258016.79274774674559, 7041447.559920414350927 ], [ 258011.789557156793308, 7041447.559920414350927 ], [ 258011.789557156793308, 7041437.553539235144854 ], [ 258016.79274774674559, 7041437.553539235144854 ], [ 258016.79274774674559, 7041377.515252155251801 ], [ 258021.795938336697873, 7041377.515252155251801 ], [ 258021.795938336697873, 7041372.512061565183103 ], [ 258026.799128926650155, 7041372.512061565183103 ], [ 258026.799128926650155, 7041367.508870975114405 ], [ 258036.805510106525617, 7041367.508870975114405 ], [ 258036.805510106525617, 7041362.50568038597703 ], [ 258041.808700696477899, 7041362.50568038597703 ], [ 258041.808700696477899, 7041357.502489795908332 ], [ 258046.811891286430182, 7041357.502489795908332 ], [ 258046.811891286430182, 7041352.499299205839634 ], [ 258051.815081876382465, 7041352.499299205839634 ], [ 258051.815081876382465, 7041347.496108615770936 ], [ 258056.818272466334747, 7041347.496108615770936 ], [ 258056.818272466334747, 7041342.492918025702238 ], [ 258061.821463056257926, 7041342.492918025702238 ], [ 258061.821463056257926, 7041332.486536845564842 ], [ 258066.824653646210209, 7041332.486536845564842 ], [ 258066.824653646210209, 7041327.483346256427467 ], [ 258071.827844236162491, 7041327.483346256427467 ], [ 258071.827844236162491, 7041322.480155666358769 ], [ 258076.831034826114774, 7041322.480155666358769 ], [ 258076.831034826114774, 7041317.476965076290071 ], [ 258081.834225416067056, 7041317.476965076290071 ], [ 258081.834225416067056, 7041307.470583896152675 ], [ 258086.837416006019339, 7041307.470583896152675 ], [ 258086.837416006019339, 7041302.467393306083977 ], [ 258091.840606595942518, 7041302.467393306083977 ], [ 258091.840606595942518, 7041297.464202716015279 ], [ 258096.8437971858948, 7041297.464202716015279 ], [ 258096.8437971858948, 7041292.461012125946581 ], [ 258191.904418394900858, 7041292.461012125946581 ], [ 258191.904418394900858, 7041737.744974631816149 ], [ 258156.882084265263984, 7041737.744974631816149 ] ], [ [ 257761.630027659441112, 7041452.563111004419625 ], [ 257771.636408839345677, 7041452.563111004419625 ], [ 257771.636408839345677, 7041447.559920414350927 ], [ 257776.639599429297959, 7041447.559920414350927 ], [ 257776.639599429297959, 7041442.556729825213552 ], [ 257781.642790019250242, 7041442.556729825213552 ], [ 257781.642790019250242, 7041427.547158055007458 ], [ 257776.639599429297959, 7041427.547158055007458 ], [ 257776.639599429297959, 7041432.550348645076156 ], [ 257771.636408839345677, 7041432.550348645076156 ], [ 257771.636408839345677, 7041437.553539235144854 ], [ 257761.630027659441112, 7041437.553539235144854 ], [ 257761.630027659441112, 7041442.556729825213552 ], [ 257756.626837069517933, 7041442.556729825213552 ], [ 257756.626837069517933, 7041447.559920414350927 ], [ 257761.630027659441112, 7041447.559920414350927 ], [ 257761.630027659441112, 7041452.563111004419625 ] ] ] } },
{ "type": "Feature", "properties": { "id": 2, "slope": 1 }, "geometry": { "type": "Polygon", "coordinates": [ [ [ 255550.219786902889609, 7041392.524823925457895 ], [ 255550.219786902889609, 7041387.521633335389197 ], [ 255545.216596312937327, 7041387.521633335389197 ], [ 255545.216596312937327, 7041382.518442745320499 ], [ 255540.213405722985044, 7041382.518442745320499 ], [ 255540.213405722985044, 7041377.515252155251801 ], [ 255535.210215133032762, 7041377.515252155251801 ], [ 255535.210215133032762, 7041372.512061565183103 ], [ 255530.207024543080479, 7041372.512061565183103 ], [ 255530.207024543080479, 7041367.508870975114405 ], [ 255525.2038339531573, 7041367.508870975114405 ], [ 255525.2038339531573, 7041362.50568038597703 ], [ 255520.200643363205018, 7041362.50568038597703 ], [ 255520.200643363205018, 7041357.502489795908332 ], [ 255515.197452773252735, 7041357.502489795908332 ], [ 255515.197452773252735, 7041352.499299205839634 ], [ 255510.194262183300452, 7041352.499299205839634 ], [ 255510.194262183300452, 7041347.496108615770936 ], [ 255505.19107159334817, 7041347.496108615770936 ], [ 255505.19107159334817, 7041342.492918025702238 ], [ 255485.178309233568143, 7041342.492918025702238 ], [ 255485.178309233568143, 7041347.496108615770936 ], [ 255470.168737463740399, 7041347.496108615770936 ], [ 255470.168737463740399, 7041342.492918025702238 ], [ 255465.165546873788116, 7041342.492918025702238 ], [ 255465.165546873788116, 7041347.496108615770936 ], [ 255460.162356283835834, 7041347.496108615770936 ], [ 255460.162356283835834, 7041352.499299205839634 ], [ 255430.143212744151242, 7041352.499299205839634 ], [ 255430.143212744151242, 7041347.496108615770936 ], [ 255405.127259794418933, 7041347.496108615770936 ], [ 255405.127259794418933, 7041342.492918025702238 ], [ 255395.120878614514368, 7041342.492918025702238 ], [ 255395.120878614514368, 7041337.48972743563354 ], [ 255390.117688024591189, 7041337.48972743563354 ], [ 255390.117688024591189, 7041327.483346256427467 ], [ 255385.114497434638906, 7041327.483346256427467 ], [ 255385.114497434638906, 7041307.470583896152675 ], [ 255380.111306844686624, 7041307.470583896152675 ], [ 255380.111306844686624, 7041302.467393306083977 ], [ 255375.108116254734341, 7041302.467393306083977 ], [ 255375.108116254734341, 7041292.461012125946581 ], [ 255370.104925664782058, 7041292.461012125946581 ], [ 255370.104925664782058, 7041287.457821536809206 ], [ 255360.098544484906597, 7041287.457821536809206 ], [ 255360.098544484906597, 7041282.454630946740508 ], [ 255355.095353894954314, 7041282.454630946740508 ], [ 255355.095353894954314, 7041277.45144035667181 ], [ 255350.092163305002032, 7041277.45144035667181 ], [ 255350.092163305002032, 7041272.448249766603112 ], [ 255345.088972715049749, 7041272.448249766603112 ], [ 255345.088972715049749, 7041262.441868586465716 ], [ 255340.085782125097467, 7041262.441868586465716 ], [ 255340.085782125097467, 7041252.435487406328321 ], [ 255335.082591535174288, 7041252.435487406328321 ], [ 255335.082591535174288, 7041242.429106227122247 ], [ 255330.079400945222005, 7041242.429106227122247 ], [ 255330.079400945222005, 7041232.422725046984851 ], [ 255325.076210355269723, 7041232.422725046984851 ], [ 255325.076210355269723, 7041222.416343866847456 ], [ 255320.07301976531744, 7041222.416343866847456 ], [ 255320.07301976531744, 7041207.406772097572684 ], [ 255315.069829175365157, 7041207.406772097572684 ], [ 255315.069829175365157, 7041197.400390917435288 ], [ 255310.066638585412875, 7041197.400390917435288 ], [ 255310.066638585412875, 7041182.390819147229195 ], [ 255305.063447995489696, 7041182.390819147229195 ], [ 255305.063447995489696, 7041177.387628557160497 ], [ 255300.060257405537413, 7041177.387628557160497 ], [ 255300.060257405537413, 7041172.384437968023121 ], [ 255295.057066815585131, 7041172.384437968023121 ], [ 255295.057066815585131, 7041167.381247377954423 ], [ 255290.053876225632848, 7041167.381247377954423 ], [ 255290.053876225632848, 7041162.378056787885725 ], [ 255285.050685635680566, 7041162.378056787885725 ], [ 255285.050685635680566, 7041152.37167560774833 ], [ 255280.047495045757387, 7041152.37167560774833 ], [ 255280.047495045757387, 7040947.240861419588327 ], [ 255820.392078760021832, 7040947.240861419588327 ], [ 255820.392078760021832, 7041327.483346256427467 ], [ 255815.388888170069549, 7041327.483346256427467 ], [ 255815.388888170069549, 7041322.480155666358769 ], [ 255805.382506990164984, 7041322.480155666358769 ], [ 255805.382506990164984, 7041317.476965076290071 ], [ 255795.376125810289523, 7041317.476965076290071 ], [ 255795.376125810289523, 7041312.473774486221373 ], [ 255775.363363450509496, 7041312.473774486221373 ], [ 255775.363363450509496, 7041302.467393306083977 ], [ 255770.360172860557213, 7041302.467393306083977 ], [ 255770.360172860557213, 7041292.461012125946581 ], [ 255760.353791680652648, 7041292.461012125946581 ], [ 255760.353791680652648, 7041297.464202716015279 ], [ 255755.350601090700366, 7041297.464202716015279 ], [ 255755.350601090700366, 7041302.467393306083977 ], [ 255750.347410500748083, 7041302.467393306083977 ], [ 255750.347410500748083, 7041307.470583896152675 ], [ 255690.309123421408003, 7041307.470583896152675 ], [ 255690.309123421408003, 7041312.473774486221373 ], [ 255680.302742241503438, 7041312.473774486221373 ], [ 255680.302742241503438, 7041327.483346256427467 ], [ 255670.296361061598873, 7041327.483346256427467 ], [ 255670.296361061598873, 7041332.486536845564842 ], [ 255635.274026931991102, 7041332.486536845564842 ], [ 255635.274026931991102, 7041327.483346256427467 ], [ 255625.267645752086537, 7041327.483346256427467 ], [ 255625.267645752086537, 7041332.486536845564842 ], [ 255620.264455162134254, 7041332.486536845564842 ], [ 255620.264455162134254, 7041337.48972743563354 ], [ 255615.261264572181972, 7041337.48972743563354 ], [ 255615.261264572181972, 7041342.492918025702238 ], [ 255610.258073982258793, 7041342.492918025702238 ], [ 255610.258073982258793, 7041347.496108615770936 ], [ 255605.25488339230651, 7041347.496108615770936 ], [ 255605.25488339230651, 7041352.499299205839634 ], [ 255600.251692802354228, 7041352.499299205839634 ], [ 255600.251692802354228, 7041357.502489795908332 ], [ 255595.248502212401945, 7041357.502489795908332 ], [ 255595.248502212401945, 7041362.50568038597703 ], [ 255590.245311622449663, 7041362.50568038597703 ], [ 255590.245311622449663, 7041367.508870975114405 ], [ 255585.24212103249738, 7041367.508870975114405 ], [ 255585.24212103249738, 7041372.512061565183103 ], [ 255580.238930442574201, 7041372.512061565183103 ], [ 255580.238930442574201, 7041377.515252155251801 ], [ 255575.235739852621919, 7041377.515252155251801 ], [ 255575.235739852621919, 7041382.518442745320499 ], [ 255570.232549262669636, 7041382.518442745320499 ], [ 255570.232549262669636, 7041387.521633335389197 ], [ 255565.229358672717353, 7041387.521633335389197 ], [ 255565.229358672717353, 7041392.524823925457895 ], [ 255550.219786902889609, 7041392.524823925457895 ] ] ] } },
{ "type": "Feature", "properties": { "id": 5, "slope": 1 }, "geometry": { "type": "Polygon", "coordinates": [ [ [ 257861.693839458399452, 7039326.207110277377069 ], [ 257861.693839458399452, 7039306.194347917102277 ], [ 257856.69064886844717, 7039306.194347917102277 ], [ 257856.69064886844717, 7039311.197538507170975 ], [ 257841.681077098590322, 7039311.197538507170975 ], [ 257841.681077098590322, 7039306.194347917102277 ], [ 257836.677886508667143, 7039306.194347917102277 ], [ 257836.677886508667143, 7039301.191157327033579 ], [ 257831.67469591871486, 7039301.191157327033579 ], [ 257831.67469591871486, 7039296.187966737896204 ], [ 257826.671505328762578, 7039296.187966737896204 ], [ 257826.671505328762578, 7039286.181585557758808 ], [ 257821.668314738810295, 7039286.181585557758808 ], [ 257821.668314738810295, 7039276.175204377621412 ], [ 257816.665124148858013, 7039276.175204377621412 ], [ 257816.665124148858013, 7039271.172013787552714 ], [ 257811.661933558934834, 7039271.172013787552714 ], [ 257811.661933558934834, 7039266.168823197484016 ], [ 257816.665124148858013, 7039266.168823197484016 ], [ 257816.665124148858013, 7039261.165632608346641 ], [ 257811.661933558934834, 7039261.165632608346641 ], [ 257811.661933558934834, 7039256.162442018277943 ], [ 257806.658742968982551, 7039256.162442018277943 ], [ 257806.658742968982551, 7039261.165632608346641 ], [ 257796.652361789077986, 7039261.165632608346641 ], [ 257796.652361789077986, 7039256.162442018277943 ], [ 257791.649171199125703, 7039256.162442018277943 ], [ 257791.649171199125703, 7039086.053961959667504 ], [ 257796.652361789077986, 7039086.053961959667504 ], [ 257796.652361789077986, 7039091.057152549736202 ], [ 257801.655552379030269, 7039091.057152549736202 ], [ 257801.655552379030269, 7039111.069914909079671 ], [ 257811.661933558934834, 7039111.069914909079671 ], [ 257811.661933558934834, 7039106.066724319942296 ], [ 257816.665124148858013, 7039106.066724319942296 ], [ 257816.665124148858013, 7039111.069914909079671 ], [ 257821.668314738810295, 7039111.069914909079671 ], [ 257821.668314738810295, 7039136.085867859423161 ], [ 257826.671505328762578, 7039136.085867859423161 ], [ 257826.671505328762578, 7039146.092249039560556 ], [ 257831.67469591871486, 7039146.092249039560556 ], [ 257831.67469591871486, 7039156.09863021876663 ], [ 257836.677886508667143, 7039156.09863021876663 ], [ 257836.677886508667143, 7039141.089058449491858 ], [ 257831.67469591871486, 7039141.089058449491858 ], [ 257831.67469591871486, 7039111.069914909079671 ], [ 257826.671505328762578, 7039111.069914909079671 ], [ 257826.671505328762578, 7039101.063533729873598 ], [ 257821.668314738810295, 7039101.063533729873598 ], [ 257821.668314738810295, 7039096.0603431398049 ], [ 257811.661933558934834, 7039096.0603431398049 ], [ 257811.661933558934834, 7039076.047580779530108 ], [ 257806.658742968982551, 7039076.047580779530108 ], [ 257806.658742968982551, 7039071.04439018946141 ], [ 257801.655552379030269, 7039071.04439018946141 ], [ 257801.655552379030269, 7039066.041199600324035 ], [ 257796.652361789077986, 7039066.041199600324035 ], [ 257796.652361789077986, 7039061.038009010255337 ], [ 257791.649171199125703, 7039061.038009010255337 ], [ 257791.649171199125703, 7038945.964625441469252 ], [ 257826.671505328762578, 7038945.964625441469252 ], [ 257826.671505328762578, 7038950.96781603153795 ], [ 257836.677886508667143, 7038950.96781603153795 ], [ 257836.677886508667143, 7038945.964625441469252 ], [ 257841.681077098590322, 7038945.964625441469252 ], [ 257841.681077098590322, 7038940.961434851400554 ], [ 257836.677886508667143, 7038940.961434851400554 ], [ 257836.677886508667143, 7038925.95186308119446 ], [ 257831.67469591871486, 7038925.95186308119446 ], [ 257831.67469591871486, 7038920.948672491125762 ], [ 257826.671505328762578, 7038920.948672491125762 ], [ 257826.671505328762578, 7038915.945481901988387 ], [ 257821.668314738810295, 7038915.945481901988387 ], [ 257821.668314738810295, 7038900.935910131782293 ], [ 257816.665124148858013, 7038900.935910131782293 ], [ 257816.665124148858013, 7038885.9263383615762 ], [ 257821.668314738810295, 7038885.9263383615762 ], [ 257821.668314738810295, 7038875.919957182370126 ], [ 257826.671505328762578, 7038875.919957182370126 ], [ 257826.671505328762578, 7038870.916766592301428 ], [ 257831.67469591871486, 7038870.916766592301428 ], [ 257831.67469591871486, 7038865.91357600223273 ], [ 257836.677886508667143, 7038865.91357600223273 ], [ 257836.677886508667143, 7038860.910385412164032 ], [ 257846.684267688542604, 7038860.910385412164032 ], [ 257846.684267688542604, 7038855.907194822095335 ], [ 257871.700220638274914, 7038855.907194822095335 ], [ 257871.700220638274914, 7038850.904004232026637 ], [ 257896.716173588007223, 7038850.904004232026637 ], [ 257896.716173588007223, 7038845.900813641957939 ], [ 257901.719364177959505, 7038845.900813641957939 ], [ 257901.719364177959505, 7038840.897623051889241 ], [ 257906.722554767911788, 7038840.897623051889241 ], [ 257906.722554767911788, 7038835.894432462751865 ], [ 257911.725745357864071, 7038835.894432462751865 ], [ 257911.725745357864071, 7038830.891241872683167 ], [ 257921.732126537768636, 7038830.891241872683167 ], [ 257921.732126537768636, 7038825.88805128261447 ], [ 257931.738507717644097, 7038825.88805128261447 ], [ 257931.738507717644097, 7038830.891241872683167 ], [ 257936.74169830759638, 7038830.891241872683167 ], [ 257936.74169830759638, 7038835.894432462751865 ], [ 257941.744888897548662, 7038835.894432462751865 ], [ 257941.744888897548662, 7038845.900813641957939 ], [ 257946.748079487500945, 7038845.900813641957939 ], [ 257946.748079487500945, 7038850.904004232026637 ], [ 257951.751270077424124, 7038850.904004232026637 ], [ 257951.751270077424124, 7038855.907194822095335 ], [ 257956.754460667376406, 7038855.907194822095335 ], [ 257956.754460667376406, 7038860.910385412164032 ], [ 257966.760841847280972, 7038860.910385412164032 ], [ 257966.760841847280972, 7038865.91357600223273 ], [ 257996.779985386965564, 7038865.91357600223273 ], [ 257996.779985386965564, 7038875.919957182370126 ], [ 258001.783175976917846, 7038875.919957182370126 ], [ 258001.783175976917846, 7038885.9263383615762 ], [ 258006.786366566841025, 7038885.9263383615762 ], [ 258006.786366566841025, 7038900.935910131782293 ], [ 258011.789557156793308, 7038900.935910131782293 ], [ 258011.789557156793308, 7038915.945481901988387 ], [ 258016.79274774674559, 7038915.945481901988387 ], [ 258016.79274774674559, 7038925.95186308119446 ], [ 258011.789557156793308, 7038925.95186308119446 ], [ 258011.789557156793308, 7038945.964625441469252 ], [ 258016.79274774674559, 7038945.964625441469252 ], [ 258016.79274774674559, 7038950.96781603153795 ], [ 258021.795938336697873, 7038950.96781603153795 ], [ 258021.795938336697873, 7038945.964625441469252 ], [ 258026.799128926650155, 7038945.964625441469252 ], [ 258026.799128926650155, 7038940.961434851400554 ], [ 258031.802319516602438, 7038940.961434851400554 ], [ 258031.802319516602438, 7038935.958244261331856 ], [ 258036.805510106525617, 7038935.958244261331856 ], [ 258036.805510106525617, 7038930.955053671263158 ], [ 258041.808700696477899, 7038930.955053671263158 ], [ 258041.808700696477899, 7038925.95186308119446 ], [ 258046.811891286430182, 7038925.95186308119446 ], [ 258046.811891286430182, 7038920.948672491125762 ], [ 258051.815081876382465, 7038920.948672491125762 ], [ 258051.815081876382465, 7038890.929528951644897 ], [ 258061.821463056257926, 7038890.929528951644897 ], [ 258061.821463056257926, 7038880.923147771507502 ], [ 258056.818272466334747, 7038880.923147771507502 ], [ 258056.818272466334747, 7038870.916766592301428 ], [ 258061.821463056257926, 7038870.916766592301428 ], [ 258061.821463056257926, 7038860.910385412164032 ], [ 258066.824653646210209, 7038860.910385412164032 ], [ 258066.824653646210209, 7038845.900813641957939 ], [ 258071.827844236162491, 7038845.900813641957939 ], [ 258071.827844236162491, 7038840.897623051889241 ], [ 258081.834225416067056, 7038840.897623051889241 ], [ 258081.834225416067056, 7038835.894432462751865 ], [ 258106.850178365799366, 7038835.894432462751865 ], [ 258106.850178365799366, 7038830.891241872683167 ], [ 258156.882084265263984, 7038830.891241872683167 ], [ 258156.882084265263984, 7038835.894432462751865 ], [ 258166.888465445168549, 7038835.894432462751865 ], [ 258166.888465445168549, 7038840.897623051889241 ], [ 258236.933133704413194, 7038840.897623051889241 ], [ 258236.933133704413194, 7038845.900813641957939 ], [ 258256.945896064193221, 7038845.900813641957939 ], [ 258256.945896064193221, 7038850.904004232026637 ], [ 258271.955467834050069, 7038850.904004232026637 ], [ 258271.955467834050069, 7038855.907194822095335 ], [ 258281.96184901392553, 7038855.907194822095335 ], [ 258281.96184901392553, 7038860.910385412164032 ], [ 258286.965039603877813, 7038860.910385412164032 ], [ 258286.965039603877813, 7038865.91357600223273 ], [ 258291.968230193830095, 7038865.91357600223273 ], [ 258291.968230193830095, 7038870.916766592301428 ], [ 258301.97461137373466, 7038870.916766592301428 ], [ 258301.97461137373466, 7038880.923147771507502 ], [ 258306.977801963686943, 7038880.923147771507502 ], [ 258306.977801963686943, 7038890.929528951644897 ], [ 258311.980992553610122, 7038890.929528951644897 ], [ 258311.980992553610122, 7038855.907194822095335 ], [ 258306.977801963686943, 7038855.907194822095335 ], [ 258306.977801963686943, 7038850.904004232026637 ], [ 258301.97461137373466, 7038850.904004232026637 ], [ 258301.97461137373466, 7038845.900813641957939 ], [ 258296.971420783782378, 7038845.900813641957939 ], [ 258296.971420783782378, 7038840.897623051889241 ], [ 258291.968230193830095, 7038840.897623051889241 ], [ 258291.968230193830095, 7038835.894432462751865 ], [ 258281.96184901392553, 7038835.894432462751865 ], [ 258281.96184901392553, 7038830.891241872683167 ], [ 258276.958658424002351, 7038830.891241872683167 ], [ 258276.958658424002351, 7038825.88805128261447 ], [ 258266.952277244097786, 7038825.88805128261447 ], [ 258266.952277244097786, 7038820.884860692545772 ], [ 258251.942705474270042, 7038820.884860692545772 ], [ 258251.942705474270042, 7038815.881670102477074 ], [ 258236.933133704413194, 7038815.881670102477074 ], [ 258236.933133704413194, 7038810.878479512408376 ], [ 258206.913990164728602, 7038810.878479512408376 ], [ 258206.913990164728602, 7038805.875288922339678 ], [ 258191.904418394900858, 7038805.875288922339678 ], [ 258191.904418394900858, 7038800.872098333202302 ], [ 258181.898037214996293, 7038800.872098333202302 ], [ 258181.898037214996293, 7038805.875288922339678 ], [ 258171.891656035091728, 7038805.875288922339678 ], [ 258171.891656035091728, 7038800.872098333202302 ], [ 258161.885274855216267, 7038800.872098333202302 ], [ 258161.885274855216267, 7038795.868907743133605 ], [ 258156.882084265263984, 7038795.868907743133605 ], [ 258156.882084265263984, 7038790.865717153064907 ], [ 258146.875703085359419, 7038790.865717153064907 ], [ 258146.875703085359419, 7038785.862526562996209 ], [ 258141.87251249543624, 7038785.862526562996209 ], [ 258141.87251249543624, 7038770.852954792790115 ], [ 258146.875703085359419, 7038770.852954792790115 ], [ 258146.875703085359419, 7038765.849764202721417 ], [ 258151.878893675311701, 7038765.849764202721417 ], [ 258151.878893675311701, 7038760.846573613584042 ], [ 258146.875703085359419, 7038760.846573613584042 ], [ 258146.875703085359419, 7038755.843383023515344 ], [ 258116.856559545674827, 7038755.843383023515344 ], [ 258116.856559545674827, 7038760.846573613584042 ], [ 258111.853368955751648, 7038760.846573613584042 ], [ 258111.853368955751648, 7038765.849764202721417 ], [ 258106.850178365799366, 7038765.849764202721417 ], [ 258106.850178365799366, 7038770.852954792790115 ], [ 258101.846987775847083, 7038770.852954792790115 ], [ 258101.846987775847083, 7038780.859335972927511 ], [ 258091.840606595942518, 7038780.859335972927511 ], [ 258091.840606595942518, 7038755.843383023515344 ], [ 258096.8437971858948, 7038755.843383023515344 ], [ 258096.8437971858948, 7038750.840192433446646 ], [ 258106.850178365799366, 7038750.840192433446646 ], [ 258106.850178365799366, 7038745.837001843377948 ], [ 258116.856559545674827, 7038745.837001843377948 ], [ 258116.856559545674827, 7038735.830620663240552 ], [ 258121.85975013562711, 7038735.830620663240552 ], [ 258121.85975013562711, 7038730.827430073171854 ], [ 258126.862940725579392, 7038730.827430073171854 ], [ 258126.862940725579392, 7038720.821048893965781 ], [ 258131.866131315531675, 7038720.821048893965781 ], [ 258131.866131315531675, 7038715.817858303897083 ], [ 258216.920371344633168, 7038715.817858303897083 ], [ 258216.920371344633168, 7038720.821048893965781 ], [ 258241.936324294365477, 7038720.821048893965781 ], [ 258241.936324294365477, 7038725.824239483103156 ], [ 258261.949086654145503, 7038725.824239483103156 ], [ 258261.949086654145503, 7038730.827430073171854 ], [ 258276.958658424002351, 7038730.827430073171854 ], [ 258276.958658424002351, 7038735.830620663240552 ], [ 258286.965039603877813, 7038735.830620663240552 ], [ 258286.965039603877813, 7038740.83381125330925 ], [ 258296.971420783782378, 7038740.83381125330925 ], [ 258296.971420783782378, 7038745.837001843377948 ], [ 258306.977801963686943, 7038745.837001843377948 ], [ 258306.977801963686943, 7038750.840192433446646 ], [ 258316.984183143562404, 7038750.840192433446646 ], [ 258316.984183143562404, 7038755.843383023515344 ], [ 258326.99056432346697, 7038755.843383023515344 ], [ 258326.99056432346697, 7038760.846573613584042 ], [ 258347.003326683246996, 7038760.846573613584042 ], [ 258347.003326683246996, 7038765.849764202721417 ], [ 258357.009707863151561, 7038765.849764202721417 ], [ 258357.009707863151561, 7038770.852954792790115 ], [ 258367.016089043027023, 7038770.852954792790115 ], [ 258367.016089043027023, 7038775.856145382858813 ], [ 258372.019279632979305, 7038775.856145382858813 ], [ 258372.019279632979305, 7038780.859335972927511 ], [ 258377.022470222931588, 7038780.859335972927511 ], [ 258377.022470222931588, 7038765.849764202721417 ], [ 258387.028851402836153, 7038765.849764202721417 ], [ 258387.028851402836153, 7038780.859335972927511 ], [ 258392.032041992759332, 7038780.859335972927511 ], [ 258392.032041992759332, 7038785.862526562996209 ], [ 258397.035232582711615, 7038785.862526562996209 ], [ 258397.035232582711615, 7038780.859335972927511 ], [ 258402.038423172663897, 7038780.859335972927511 ], [ 258402.038423172663897, 7038765.849764202721417 ], [ 258407.04161376261618, 7038765.849764202721417 ], [ 258407.04161376261618, 7038710.814667713828385 ], [ 258412.044804352568462, 7038710.814667713828385 ], [ 258412.044804352568462, 7038685.798714764416218 ], [ 258417.047994942520745, 7038685.798714764416218 ], [ 258417.047994942520745, 7038680.79552417434752 ], [ 258422.051185532443924, 7038680.79552417434752 ], [ 258422.051185532443924, 7038675.792333584278822 ], [ 258427.054376122396206, 7038675.792333584278822 ], [ 258427.054376122396206, 7038665.785952404141426 ], [ 258447.067138482176233, 7038665.785952404141426 ], [ 258447.067138482176233, 7038660.782761814072728 ], [ 258442.063947892253054, 7038660.782761814072728 ], [ 258442.063947892253054, 7038640.769999454729259 ], [ 258447.067138482176233, 7038640.769999454729259 ], [ 258447.067138482176233, 7038645.773190044797957 ], [ 258452.070329072128516, 7038645.773190044797957 ], [ 258452.070329072128516, 7038650.776380633935332 ], [ 258462.076710252033081, 7038650.776380633935332 ], [ 258462.076710252033081, 7038645.773190044797957 ], [ 258457.073519662080798, 7038645.773190044797957 ], [ 258457.073519662080798, 7038640.769999454729259 ], [ 258452.070329072128516, 7038640.769999454729259 ], [ 258452.070329072128516, 7038635.766808864660561 ], [ 258462.076710252033081, 7038635.766808864660561 ], [ 258462.076710252033081, 7038640.769999454729259 ], [ 258467.079900841985364, 7038640.769999454729259 ], [ 258467.079900841985364, 7038645.773190044797957 ], [ 258497.099044381669955, 7038645.773190044797957 ], [ 258497.099044381669955, 7038640.769999454729259 ], [ 258507.105425561545417, 7038640.769999454729259 ], [ 258507.105425561545417, 7038645.773190044797957 ], [ 258522.114997331402265, 7038645.773190044797957 ], [ 258522.114997331402265, 7038640.769999454729259 ], [ 258527.118187921354547, 7038640.769999454729259 ], [ 258527.118187921354547, 7038630.763618274591863 ], [ 258532.121378511277726, 7038630.763618274591863 ], [ 258532.121378511277726, 7038625.760427684523165 ], [ 258542.127759691182291, 7038625.760427684523165 ], [ 258542.127759691182291, 7038605.747665325179696 ], [ 258537.124569101230009, 7038605.747665325179696 ], [ 258537.124569101230009, 7038595.7412841450423 ], [ 258532.121378511277726, 7038595.7412841450423 ], [ 258532.121378511277726, 7038580.731712374836206 ], [ 258527.118187921354547, 7038580.731712374836206 ], [ 258527.118187921354547, 7038560.718950015492737 ], [ 258522.114997331402265, 7038560.718950015492737 ], [ 258522.114997331402265, 7038540.706187655217946 ], [ 258517.111806741449982, 7038540.706187655217946 ], [ 258517.111806741449982, 7038530.699806476011872 ], [ 258512.108616151497699, 7038530.699806476011872 ], [ 258512.108616151497699, 7038520.693425295874476 ], [ 258507.105425561545417, 7038520.693425295874476 ], [ 258507.105425561545417, 7038515.690234705805779 ], [ 258502.102234971593134, 7038515.690234705805779 ], [ 258502.102234971593134, 7038510.687044115737081 ], [ 258497.099044381669955, 7038510.687044115737081 ], [ 258497.099044381669955, 7038505.683853525668383 ], [ 258492.095853791717673, 7038505.683853525668383 ], [ 258492.095853791717673, 7038495.677472346462309 ], [ 258487.09266320176539, 7038495.677472346462309 ], [ 258487.09266320176539, 7038490.674281756393611 ], [ 258482.089472611813108, 7038490.674281756393611 ], [ 258482.089472611813108, 7038450.648757036775351 ], [ 258487.09266320176539, 7038450.648757036775351 ], [ 258487.09266320176539, 7038445.645566446706653 ], [ 258492.095853791717673, 7038445.645566446706653 ], [ 258492.095853791717673, 7038440.642375856637955 ], [ 258497.099044381669955, 7038440.642375856637955 ], [ 258497.099044381669955, 7038435.639185266569257 ], [ 258502.102234971593134, 7038435.639185266569257 ], [ 258502.102234971593134, 7038430.635994676500559 ], [ 258507.105425561545417, 7038430.635994676500559 ], [ 258507.105425561545417, 7038425.632804086431861 ], [ 258512.108616151497699, 7038425.632804086431861 ], [ 258512.108616151497699, 7038420.629613496363163 ], [ 258517.111806741449982, 7038420.629613496363163 ], [ 258517.111806741449982, 7038415.626422907225788 ], [ 258522.114997331402265, 7038415.626422907225788 ], [ 258522.114997331402265, 7038410.62323231715709 ], [ 258527.118187921354547, 7038410.62323231715709 ], [ 258527.118187921354547, 7038405.620041727088392 ], [ 258532.121378511277726, 7038405.620041727088392 ], [ 258532.121378511277726, 7038400.616851137019694 ], [ 258537.124569101230009, 7038400.616851137019694 ], [ 258537.124569101230009, 7038395.613660546950996 ], [ 258542.127759691182291, 7038395.613660546950996 ], [ 258542.127759691182291, 7038390.610469956882298 ], [ 258547.130950281134574, 7038390.610469956882298 ], [ 258547.130950281134574, 7038385.6072793668136 ], [ 258552.134140871086856, 7038385.6072793668136 ], [ 258552.134140871086856, 7038380.604088777676225 ], [ 258557.137331461010035, 7038380.604088777676225 ], [ 258557.137331461010035, 7038375.600898187607527 ], [ 258562.140522050962318, 7038375.600898187607527 ], [ 258562.140522050962318, 7038370.597707597538829 ], [ 258567.1437126409146, 7038370.597707597538829 ], [ 258567.1437126409146, 7038355.588135827332735 ], [ 258572.146903230866883, 7038355.588135827332735 ], [ 258572.146903230866883, 7038340.578564058057964 ], [ 258577.150093820819166, 7038340.578564058057964 ], [ 258577.150093820819166, 7038325.56899228785187 ], [ 258582.153284410771448, 7038325.56899228785187 ], [ 258582.153284410771448, 7038300.553039338439703 ], [ 258587.156475000694627, 7038300.553039338439703 ], [ 258587.156475000694627, 7038285.543467568233609 ], [ 258592.15966559064691, 7038285.543467568233609 ], [ 258592.15966559064691, 7038255.524324028752744 ], [ 258597.162856180599192, 7038255.524324028752744 ], [ 258597.162856180599192, 7038235.511561668477952 ], [ 258602.166046770551475, 7038235.511561668477952 ], [ 258602.166046770551475, 7038205.492418128997087 ], [ 258597.162856180599192, 7038205.492418128997087 ], [ 258597.162856180599192, 7038195.486036948859692 ], [ 258882.344719807588262, 7038195.486036948859692 ], [ 258882.344719807588262, 7039326.207110277377069 ], [ 258572.146903230866883, 7039326.207110277377069 ], [ 258572.146903230866883, 7039321.203919687308371 ], [ 258567.1437126409146, 7039321.203919687308371 ], [ 258567.1437126409146, 7039286.181585557758808 ], [ 258562.140522050962318, 7039286.181585557758808 ], [ 258562.140522050962318, 7039271.172013787552714 ], [ 258557.137331461010035, 7039271.172013787552714 ], [ 258557.137331461010035, 7039246.156060838140547 ], [ 258547.130950281134574, 7039246.156060838140547 ], [ 258547.130950281134574, 7039256.162442018277943 ], [ 258537.124569101230009, 7039256.162442018277943 ], [ 258537.124569101230009, 7039221.14010788872838 ], [ 258532.121378511277726, 7039221.14010788872838 ], [ 258532.121378511277726, 7039216.136917298659682 ], [ 258522.114997331402265, 7039216.136917298659682 ], [ 258522.114997331402265, 7039221.14010788872838 ], [ 258517.111806741449982, 7039221.14010788872838 ], [ 258517.111806741449982, 7039226.143298477865756 ], [ 258507.105425561545417, 7039226.143298477865756 ], [ 258507.105425561545417, 7039236.149679658003151 ], [ 258502.102234971593134, 7039236.149679658003151 ], [ 258502.102234971593134, 7039246.156060838140547 ], [ 258497.099044381669955, 7039246.156060838140547 ], [ 258497.099044381669955, 7039251.159251428209245 ], [ 258492.095853791717673, 7039251.159251428209245 ], [ 258492.095853791717673, 7039256.162442018277943 ], [ 258482.089472611813108, 7039256.162442018277943 ], [ 258482.089472611813108, 7039251.159251428209245 ], [ 258462.076710252033081, 7039251.159251428209245 ], [ 258462.076710252033081, 7039256.162442018277943 ], [ 258452.070329072128516, 7039256.162442018277943 ], [ 258452.070329072128516, 7039261.165632608346641 ], [ 258442.063947892253054, 7039261.165632608346641 ], [ 258442.063947892253054, 7039266.168823197484016 ], [ 258432.057566712348489, 7039266.168823197484016 ], [ 258432.057566712348489, 7039271.172013787552714 ], [ 258422.051185532443924, 7039271.172013787552714 ], [ 258422.051185532443924, 7039276.175204377621412 ], [ 258392.032041992759332, 7039276.175204377621412 ], [ 258392.032041992759332, 7039271.172013787552714 ], [ 258362.012898453103844, 7039271.172013787552714 ], [ 258362.012898453103844, 7039276.175204377621412 ], [ 258357.009707863151561, 7039276.175204377621412 ], [ 258357.009707863151561, 7039281.17839496769011 ], [ 258362.012898453103844, 7039281.17839496769011 ], [ 258362.012898453103844, 7039291.184776147827506 ], [ 258367.016089043027023, 7039291.184776147827506 ], [ 258367.016089043027023, 7039296.187966737896204 ], [ 258372.019279632979305, 7039296.187966737896204 ], [ 258372.019279632979305, 7039306.194347917102277 ], [ 258377.022470222931588, 7039306.194347917102277 ], [ 258377.022470222931588, 7039321.203919687308371 ], [ 258372.019279632979305, 7039321.203919687308371 ], [ 258372.019279632979305, 7039326.207110277377069 ], [ 258271.955467834050069, 7039326.207110277377069 ], [ 258271.955467834050069, 7039321.203919687308371 ], [ 258251.942705474270042, 7039321.203919687308371 ], [ 258251.942705474270042, 7039316.200729097239673 ], [ 258246.939514884317759, 7039316.200729097239673 ], [ 258246.939514884317759, 7039301.191157327033579 ], [ 258241.936324294365477, 7039301.191157327033579 ], [ 258241.936324294365477, 7039296.187966737896204 ], [ 258231.929943114460912, 7039296.187966737896204 ], [ 258231.929943114460912, 7039291.184776147827506 ], [ 258221.92356193458545, 7039291.184776147827506 ], [ 258221.92356193458545, 7039286.181585557758808 ], [ 258216.920371344633168, 7039286.181585557758808 ], [ 258216.920371344633168, 7039281.17839496769011 ], [ 258211.917180754680885, 7039281.17839496769011 ], [ 258211.917180754680885, 7039271.172013787552714 ], [ 258206.913990164728602, 7039271.172013787552714 ], [ 258206.913990164728602, 7039266.168823197484016 ], [ 258196.907608984853141, 7039266.168823197484016 ], [ 258196.907608984853141, 7039261.165632608346641 ], [ 258191.904418394900858, 7039261.165632608346641 ], [ 258191.904418394900858, 7039251.159251428209245 ], [ 258186.901227804948576, 7039251.159251428209245 ], [ 258186.901227804948576, 7039246.156060838140547 ], [ 258181.898037214996293, 7039246.156060838140547 ], [ 258181.898037214996293, 7039236.149679658003151 ], [ 258186.901227804948576, 7039236.149679658003151 ], [ 258186.901227804948576, 7039226.143298477865756 ], [ 258181.898037214996293, 7039226.143298477865756 ], [ 258181.898037214996293, 7039221.14010788872838 ], [ 258176.894846625044011, 7039221.14010788872838 ], [ 258176.894846625044011, 7039211.133726708590984 ], [ 258171.891656035091728, 7039211.133726708590984 ], [ 258171.891656035091728, 7039206.130536118522286 ], [ 258166.888465445168549, 7039206.130536118522286 ], [ 258166.888465445168549, 7039201.127345528453588 ], [ 258161.885274855216267, 7039201.127345528453588 ], [ 258161.885274855216267, 7039196.124154938384891 ], [ 258151.878893675311701, 7039196.124154938384891 ], [ 258151.878893675311701, 7039191.120964348316193 ], [ 258146.875703085359419, 7039191.120964348316193 ], [ 258146.875703085359419, 7039196.124154938384891 ], [ 258136.869321905483957, 7039196.124154938384891 ], [ 258136.869321905483957, 7039201.127345528453588 ], [ 258126.862940725579392, 7039201.127345528453588 ], [ 258126.862940725579392, 7039211.133726708590984 ], [ 258121.85975013562711, 7039211.133726708590984 ], [ 258121.85975013562711, 7039231.146489067934453 ], [ 258126.862940725579392, 7039231.146489067934453 ], [ 258126.862940725579392, 7039226.143298477865756 ], [ 258136.869321905483957, 7039226.143298477865756 ], [ 258136.869321905483957, 7039231.146489067934453 ], [ 258141.87251249543624, 7039231.146489067934453 ], [ 258141.87251249543624, 7039241.152870248071849 ], [ 258136.869321905483957, 7039241.152870248071849 ], [ 258136.869321905483957, 7039306.194347917102277 ], [ 258141.87251249543624, 7039306.194347917102277 ], [ 258141.87251249543624, 7039301.191157327033579 ], [ 258146.875703085359419, 7039301.191157327033579 ], [ 258146.875703085359419, 7039296.187966737896204 ], [ 258156.882084265263984, 7039296.187966737896204 ], [ 258156.882084265263984, 7039301.191157327033579 ], [ 258161.885274855216267, 7039301.191157327033579 ], [ 258161.885274855216267, 7039306.194347917102277 ], [ 258166.888465445168549, 7039306.194347917102277 ], [ 258166.888465445168549, 7039326.207110277377069 ], [ 257861.693839458399452, 7039326.207110277377069 ] ], [ [ 258602.166046770551475, 7039266.168823197484016 ], [ 258607.169237360503757, 7039266.168823197484016 ], [ 258607.169237360503757, 7039261.165632608346641 ], [ 258612.172427950426936, 7039261.165632608346641 ], [ 258612.172427950426936, 7039256.162442018277943 ], [ 258617.175618540379219, 7039256.162442018277943 ], [ 258617.175618540379219, 7039246.156060838140547 ], [ 258622.178809130331501, 7039246.156060838140547 ], [ 258622.178809130331501, 7039196.124154938384891 ], [ 258627.181999720283784, 7039196.124154938384891 ], [ 258627.181999720283784, 7039191.120964348316193 ], [ 258632.185190310236067, 7039191.120964348316193 ], [ 258632.185190310236067, 7039181.114583169110119 ], [ 258637.188380900188349, 7039181.114583169110119 ], [ 258637.188380900188349, 7039176.111392579041421 ], [ 258642.191571490111528, 7039176.111392579041421 ], [ 258642.191571490111528, 7039171.108201988972723 ], [ 258647.194762080063811, 7039171.108201988972723 ], [ 258647.194762080063811, 7039161.101820808835328 ], [ 258652.197952670016093, 7039161.101820808835328 ], [ 258652.197952670016093, 7039141.089058449491858 ], [ 258657.201143259968376, 7039141.089058449491858 ], [ 258657.201143259968376, 7039131.082677269354463 ], [ 258662.204333849920658, 7039131.082677269354463 ], [ 258662.204333849920658, 7039126.079486679285765 ], [ 258667.207524439843837, 7039126.079486679285765 ], [ 258667.207524439843837, 7039116.073105499148369 ], [ 258672.21071502979612, 7039116.073105499148369 ], [ 258672.21071502979612, 7039111.069914909079671 ], [ 258677.213905619748402, 7039111.069914909079671 ], [ 258677.213905619748402, 7039101.063533729873598 ], [ 258682.217096209700685, 7039101.063533729873598 ], [ 258682.217096209700685, 7039091.057152549736202 ], [ 258687.220286799652968, 7039091.057152549736202 ], [ 258687.220286799652968, 7039081.050771369598806 ], [ 258692.22347738960525, 7039081.050771369598806 ], [ 258692.22347738960525, 7039076.047580779530108 ], [ 258697.226667979528429, 7039076.047580779530108 ], [ 258697.226667979528429, 7039071.04439018946141 ], [ 258712.236239749385277, 7039071.04439018946141 ], [ 258712.236239749385277, 7039066.041199600324035 ], [ 258717.239430339337559, 7039066.041199600324035 ], [ 258717.239430339337559, 7039056.034818420186639 ], [ 258722.242620929260738, 7039056.034818420186639 ], [ 258722.242620929260738, 7039041.025246649980545 ], [ 258727.245811519213021, 7039041.025246649980545 ], [ 258727.245811519213021, 7039026.015674880705774 ], [ 258732.249002109165303, 7039026.015674880705774 ], [ 258732.249002109165303, 7039016.009293700568378 ], [ 258737.252192699117586, 7039016.009293700568378 ], [ 258737.252192699117586, 7039000.999721930362284 ], [ 258742.255383289069869, 7039000.999721930362284 ], [ 258742.255383289069869, 7038970.980578390881419 ], [ 258747.258573879022151, 7038970.980578390881419 ], [ 258747.258573879022151, 7038960.974197210744023 ], [ 258752.26176446894533, 7038960.974197210744023 ], [ 258752.26176446894533, 7038940.961434851400554 ], [ 258757.264955058897613, 7038940.961434851400554 ], [ 258757.264955058897613, 7038935.958244261331856 ], [ 258762.268145648849895, 7038935.958244261331856 ], [ 258762.268145648849895, 7038930.955053671263158 ], [ 258767.271336238802178, 7038930.955053671263158 ], [ 258767.271336238802178, 7038925.95186308119446 ], [ 258772.27452682875446, 7038925.95186308119446 ], [ 258772.27452682875446, 7038905.939100721850991 ], [ 258777.277717418677639, 7038905.939100721850991 ], [ 258777.277717418677639, 7038900.935910131782293 ], [ 258762.268145648849895, 7038900.935910131782293 ], [ 258762.268145648849895, 7038895.932719541713595 ], [ 258752.26176446894533, 7038895.932719541713595 ], [ 258752.26176446894533, 7038885.9263383615762 ], [ 258732.249002109165303, 7038885.9263383615762 ], [ 258732.249002109165303, 7038880.923147771507502 ], [ 258717.239430339337559, 7038880.923147771507502 ], [ 258717.239430339337559, 7038875.919957182370126 ], [ 258707.233049159432994, 7038875.919957182370126 ], [ 258707.233049159432994, 7038870.916766592301428 ], [ 258697.226667979528429, 7038870.916766592301428 ], [ 258697.226667979528429, 7038865.91357600223273 ], [ 258687.220286799652968, 7038865.91357600223273 ], [ 258687.220286799652968, 7038860.910385412164032 ], [ 258682.217096209700685, 7038860.910385412164032 ], [ 258682.217096209700685, 7038840.897623051889241 ], [ 258672.21071502979612, 7038840.897623051889241 ], [ 258672.21071502979612, 7038835.894432462751865 ], [ 258667.207524439843837, 7038835.894432462751865 ], [ 258667.207524439843837, 7038830.891241872683167 ], [ 258657.201143259968376, 7038830.891241872683167 ], [ 258657.201143259968376, 7038840.897623051889241 ], [ 258652.197952670016093, 7038840.897623051889241 ], [ 258652.197952670016093, 7038845.900813641957939 ], [ 258647.194762080063811, 7038845.900813641957939 ], [ 258647.194762080063811, 7038850.904004232026637 ], [ 258642.191571490111528, 7038850.904004232026637 ], [ 258642.191571490111528, 7038855.907194822095335 ], [ 258637.188380900188349, 7038855.907194822095335 ], [ 258637.188380900188349, 7038865.91357600223273 ], [ 258632.185190310236067, 7038865.91357600223273 ], [ 258632.185190310236067, 7038870.916766592301428 ], [ 258627.181999720283784, 7038870.916766592301428 ], [ 258627.181999720283784, 7038875.919957182370126 ], [ 258622.178809130331501, 7038875.919957182370126 ], [ 258622.178809130331501, 7038880.923147771507502 ], [ 258617.175618540379219, 7038880.923147771507502 ], [ 258617.175618540379219, 7038885.9263383615762 ], [ 258612.172427950426936, 7038885.9263383615762 ], [ 258612.172427950426936, 7038890.929528951644897 ], [ 258617.175618540379219, 7038890.929528951644897 ], [ 258617.175618540379219, 7038895.932719541713595 ], [ 258622.178809130331501, 7038895.932719541713595 ], [ 258622.178809130331501, 7038900.935910131782293 ], [ 258637.188380900188349, 7038900.935910131782293 ], [ 258637.188380900188349, 7038905.939100721850991 ], [ 258627.181999720283784, 7038905.939100721850991 ], [ 258627.181999720283784, 7038910.942291311919689 ], [ 258612.172427950426936, 7038910.942291311919689 ], [ 258612.172427950426936, 7038915.945481901988387 ], [ 258602.166046770551475, 7038915.945481901988387 ], [ 258602.166046770551475, 7038925.95186308119446 ], [ 258597.162856180599192, 7038925.95186308119446 ], [ 258597.162856180599192, 7038960.974197210744023 ], [ 258592.15966559064691, 7038960.974197210744023 ], [ 258592.15966559064691, 7038965.977387800812721 ], [ 258587.156475000694627, 7038965.977387800812721 ], [ 258587.156475000694627, 7038970.980578390881419 ], [ 258582.153284410771448, 7038970.980578390881419 ], [ 258582.153284410771448, 7038975.983768980950117 ], [ 258577.150093820819166, 7038975.983768980950117 ], [ 258577.150093820819166, 7038980.986959571018815 ], [ 258572.146903230866883, 7038980.986959571018815 ], [ 258572.146903230866883, 7038985.990150161087513 ], [ 258567.1437126409146, 7038985.990150161087513 ], [ 258567.1437126409146, 7038990.993340751156211 ], [ 258562.140522050962318, 7038990.993340751156211 ], [ 258562.140522050962318, 7039000.999721930362284 ], [ 258567.1437126409146, 7039000.999721930362284 ], [ 258567.1437126409146, 7039006.002912520430982 ], [ 258572.146903230866883, 7039006.002912520430982 ], [ 258572.146903230866883, 7039011.00610311049968 ], [ 258582.153284410771448, 7039011.00610311049968 ], [ 258582.153284410771448, 7039021.012484290637076 ], [ 258587.156475000694627, 7039021.012484290637076 ], [ 258587.156475000694627, 7039036.022056059911847 ], [ 258592.15966559064691, 7039036.022056059911847 ], [ 258592.15966559064691, 7039066.041199600324035 ], [ 258597.162856180599192, 7039066.041199600324035 ], [ 258597.162856180599192, 7039086.053961959667504 ], [ 258592.15966559064691, 7039086.053961959667504 ], [ 258592.15966559064691, 7039101.063533729873598 ], [ 258587.156475000694627, 7039101.063533729873598 ], [ 258587.156475000694627, 7039111.069914909079671 ], [ 258582.153284410771448, 7039111.069914909079671 ], [ 258582.153284410771448, 7039136.085867859423161 ], [ 258577.150093820819166, 7039136.085867859423161 ], [ 258577.150093820819166, 7039151.095439628697932 ], [ 258572.146903230866883, 7039151.095439628697932 ], [ 258572.146903230866883, 7039166.105011398904026 ], [ 258567.1437126409146, 7039166.105011398904026 ], [ 258567.1437126409146, 7039181.114583169110119 ], [ 258577.150093820819166, 7039181.114583169110119 ], [ 258577.150093820819166, 7039186.117773758247495 ], [ 258587.156475000694627, 7039186.117773758247495 ], [ 258587.156475000694627, 7039196.124154938384891 ], [ 258582.153284410771448, 7039196.124154938384891 ], [ 258582.153284410771448, 7039201.127345528453588 ], [ 258592.15966559064691, 7039201.127345528453588 ], [ 258592.15966559064691, 7039211.133726708590984 ], [ 258597.162856180599192, 7039211.133726708590984 ], [ 258597.162856180599192, 7039221.14010788872838 ], [ 258602.166046770551475, 7039221.14010788872838 ], [ 258602.166046770551475, 7039266.168823197484016 ] ], [ [ 258136.869321905483957, 7039186.117773758247495 ], [ 258171.891656035091728, 7039186.117773758247495 ], [ 258171.891656035091728, 7039166.105011398904026 ], [ 258166.888465445168549, 7039166.105011398904026 ], [ 258166.888465445168549, 7039151.095439628697932 ], [ 258161.885274855216267, 7039151.095439628697932 ], [ 258161.885274855216267, 7039146.092249039560556 ], [ 258156.882084265263984, 7039146.092249039560556 ], [ 258156.882084265263984, 7039141.089058449491858 ], [ 258151.878893675311701, 7039141.089058449491858 ], [ 258151.878893675311701, 7039136.085867859423161 ], [ 258141.87251249543624, 7039136.085867859423161 ], [ 258141.87251249543624, 7039131.082677269354463 ], [ 258136.869321905483957, 7039131.082677269354463 ], [ 258136.869321905483957, 7039116.073105499148369 ], [ 258131.866131315531675, 7039116.073105499148369 ], [ 258131.866131315531675, 7039121.076296089217067 ], [ 258126.862940725579392, 7039121.076296089217067 ], [ 258126.862940725579392, 7039126.079486679285765 ], [ 258121.85975013562711, 7039126.079486679285765 ], [ 258121.85975013562711, 7039146.092249039560556 ], [ 258126.862940725579392, 7039146.092249039560556 ], [ 258126.862940725579392, 7039151.095439628697932 ], [ 258131.866131315531675, 7039151.095439628697932 ], [ 258131.866131315531675, 7039161.101820808835328 ], [ 258136.869321905483957, 7039161.101820808835328 ], [ 258136.869321905483957, 7039171.108201988972723 ], [ 258131.866131315531675, 7039171.108201988972723 ], [ 258131.866131315531675, 7039181.114583169110119 ], [ 258136.869321905483957, 7039181.114583169110119 ], [ 258136.869321905483957, 7039186.117773758247495 ] ] ] } },
{ "type": "Feature", "properties": { "id": 6, "slope": 1 }, "geometry": { "type": "Polygon", "coordinates": [ [ [ 258692.22347738960525, 7034798.319626375101507 ], [ 258692.22347738960525, 7034493.125000388361514 ], [ 258712.236239749385277, 7034493.125000388361514 ], [ 258712.236239749385277, 7034488.121809798292816 ], [ 258697.226667979528429, 7034488.121809798292816 ], [ 258697.226667979528429, 7034483.118619208224118 ], [ 258692.22347738960525, 7034483.118619208224118 ], [ 258692.22347738960525, 7034242.965470891445875 ], [ 258942.383006886928342, 7034242.965470891445875 ], [ 258942.383006886928342, 7034247.968661480583251 ], [ 258947.386197476880625, 7034247.968661480583251 ], [ 258947.386197476880625, 7034262.978233250789344 ], [ 258942.383006886928342, 7034262.978233250789344 ], [ 258942.383006886928342, 7034272.98461443092674 ], [ 258947.386197476880625, 7034272.98461443092674 ], [ 258947.386197476880625, 7034303.003757970407605 ], [ 258957.39257865678519, 7034303.003757970407605 ], [ 258957.39257865678519, 7034298.000567380338907 ], [ 258977.405341016565217, 7034298.000567380338907 ], [ 258977.405341016565217, 7034303.003757970407605 ], [ 258982.408531606517499, 7034303.003757970407605 ], [ 258982.408531606517499, 7034308.006948560476303 ], [ 258987.411722196469782, 7034308.006948560476303 ], [ 258987.411722196469782, 7034318.013329740613699 ], [ 258992.414912786422065, 7034318.013329740613699 ], [ 258992.414912786422065, 7034323.016520330682397 ], [ 258997.418103376345243, 7034323.016520330682397 ], [ 258997.418103376345243, 7034333.02290150988847 ], [ 258992.414912786422065, 7034333.02290150988847 ], [ 258992.414912786422065, 7034338.026092099957168 ], [ 258987.411722196469782, 7034338.026092099957168 ], [ 258987.411722196469782, 7034348.032473280094564 ], [ 258997.418103376345243, 7034348.032473280094564 ], [ 258997.418103376345243, 7034343.029282690025866 ], [ 259022.434056326106656, 7034343.029282690025866 ], [ 259022.434056326106656, 7034368.045235639438033 ], [ 259027.437246916029835, 7034368.045235639438033 ], [ 259027.437246916029835, 7034383.054807409644127 ], [ 259032.440437505982118, 7034383.054807409644127 ], [ 259032.440437505982118, 7034393.061188589781523 ], [ 259037.4436280959344, 7034393.061188589781523 ], [ 259037.4436280959344, 7034403.067569768987596 ], [ 259042.446818685886683, 7034403.067569768987596 ], [ 259042.446818685886683, 7034413.073950949124992 ], [ 259032.440437505982118, 7034413.073950949124992 ], [ 259032.440437505982118, 7034418.07714153919369 ], [ 259027.437246916029835, 7034418.07714153919369 ], [ 259027.437246916029835, 7034428.083522719331086 ], [ 259022.434056326106656, 7034428.083522719331086 ], [ 259022.434056326106656, 7034433.086713309399784 ], [ 259017.430865736154374, 7034433.086713309399784 ], [ 259017.430865736154374, 7034443.093094488605857 ], [ 259012.427675146202091, 7034443.093094488605857 ], [ 259012.427675146202091, 7034448.096285078674555 ], [ 259002.421293966297526, 7034448.096285078674555 ], [ 259002.421293966297526, 7034453.099475668743253 ], [ 259007.424484556249809, 7034453.099475668743253 ], [ 259007.424484556249809, 7034458.102666258811951 ], [ 259012.427675146202091, 7034458.102666258811951 ], [ 259012.427675146202091, 7034463.105856848880649 ], [ 259017.430865736154374, 7034463.105856848880649 ], [ 259017.430865736154374, 7034468.109047438949347 ], [ 259022.434056326106656, 7034468.109047438949347 ], [ 259022.434056326106656, 7034473.112238029018044 ], [ 259027.437246916029835, 7034473.112238029018044 ], [ 259027.437246916029835, 7034478.11542861815542 ], [ 259032.440437505982118, 7034478.11542861815542 ], [ 259032.440437505982118, 7034473.112238029018044 ], [ 259037.4436280959344, 7034473.112238029018044 ], [ 259037.4436280959344, 7034468.109047438949347 ], [ 259047.450009275838966, 7034468.109047438949347 ], [ 259047.450009275838966, 7034463.105856848880649 ], [ 259062.45958104566671, 7034463.105856848880649 ], [ 259062.45958104566671, 7034458.102666258811951 ], [ 259077.469152815523557, 7034458.102666258811951 ], [ 259077.469152815523557, 7034453.099475668743253 ], [ 259087.475533995399019, 7034453.099475668743253 ], [ 259087.475533995399019, 7034448.096285078674555 ], [ 259092.478724585351301, 7034448.096285078674555 ], [ 259092.478724585351301, 7034453.099475668743253 ], [ 259117.494677535083611, 7034453.099475668743253 ], [ 259117.494677535083611, 7034463.105856848880649 ], [ 259122.497868125035893, 7034463.105856848880649 ], [ 259122.497868125035893, 7034468.109047438949347 ], [ 259132.504249304911355, 7034468.109047438949347 ], [ 259132.504249304911355, 7034488.121809798292816 ], [ 259137.507439894863637, 7034488.121809798292816 ], [ 259137.507439894863637, 7034503.131381568498909 ], [ 259142.51063048481592, 7034503.131381568498909 ], [ 259142.51063048481592, 7034513.137762748636305 ], [ 259147.513821074768202, 7034513.137762748636305 ], [ 259147.513821074768202, 7034498.128190978430212 ], [ 259152.517011664720485, 7034498.128190978430212 ], [ 259152.517011664720485, 7034488.121809798292816 ], [ 259157.520202254672768, 7034488.121809798292816 ], [ 259157.520202254672768, 7034483.118619208224118 ], [ 259182.536155204405077, 7034483.118619208224118 ], [ 259182.536155204405077, 7034488.121809798292816 ], [ 259207.552108154137386, 7034488.121809798292816 ], [ 259207.552108154137386, 7034493.125000388361514 ], [ 259217.558489334012847, 7034493.125000388361514 ], [ 259217.558489334012847, 7034488.121809798292816 ], [ 259227.564870513917413, 7034488.121809798292816 ], [ 259227.564870513917413, 7034478.11542861815542 ], [ 259217.558489334012847, 7034478.11542861815542 ], [ 259217.558489334012847, 7034473.112238029018044 ], [ 259202.548917564185103, 7034473.112238029018044 ], [ 259202.548917564185103, 7034478.11542861815542 ], [ 259187.539345794328256, 7034478.11542861815542 ], [ 259187.539345794328256, 7034473.112238029018044 ], [ 259177.532964614452794, 7034473.112238029018044 ], [ 259177.532964614452794, 7034468.109047438949347 ], [ 259172.529774024500512, 7034468.109047438949347 ], [ 259172.529774024500512, 7034463.105856848880649 ], [ 259162.523392844595946, 7034463.105856848880649 ], [ 259162.523392844595946, 7034458.102666258811951 ], [ 259157.520202254672768, 7034458.102666258811951 ], [ 259157.520202254672768, 7034453.099475668743253 ], [ 259152.517011664720485, 7034453.099475668743253 ], [ 259152.517011664720485, 7034443.093094488605857 ], [ 259147.513821074768202, 7034443.093094488605857 ], [ 259147.513821074768202, 7034438.089903898537159 ], [ 259142.51063048481592, 7034438.089903898537159 ], [ 259142.51063048481592, 7034408.070760359056294 ], [ 259147.513821074768202, 7034408.070760359056294 ], [ 259147.513821074768202, 7034403.067569768987596 ], [ 259152.517011664720485, 7034403.067569768987596 ], [ 259152.517011664720485, 7034393.061188589781523 ], [ 259157.520202254672768, 7034393.061188589781523 ], [ 259157.520202254672768, 7034388.057997999712825 ], [ 259162.523392844595946, 7034388.057997999712825 ], [ 259162.523392844595946, 7034378.051616819575429 ], [ 259167.526583434548229, 7034378.051616819575429 ], [ 259167.526583434548229, 7034368.045235639438033 ], [ 259172.529774024500512, 7034368.045235639438033 ], [ 259172.529774024500512, 7034358.03885446023196 ], [ 259177.532964614452794, 7034358.03885446023196 ], [ 259177.532964614452794, 7034348.032473280094564 ], [ 259182.536155204405077, 7034348.032473280094564 ], [ 259182.536155204405077, 7034338.026092099957168 ], [ 259187.539345794328256, 7034338.026092099957168 ], [ 259187.539345794328256, 7034333.02290150988847 ], [ 259197.545726974232821, 7034333.02290150988847 ], [ 259197.545726974232821, 7034318.013329740613699 ], [ 259202.548917564185103, 7034318.013329740613699 ], [ 259202.548917564185103, 7034308.006948560476303 ], [ 259207.552108154137386, 7034308.006948560476303 ], [ 259207.552108154137386, 7034298.000567380338907 ], [ 259212.555298744089669, 7034298.000567380338907 ], [ 259212.555298744089669, 7034287.994186200201511 ], [ 259217.558489334012847, 7034287.994186200201511 ], [ 259217.558489334012847, 7034282.990995611064136 ], [ 259222.56167992396513, 7034282.990995611064136 ], [ 259222.56167992396513, 7034267.981423840858042 ], [ 259217.558489334012847, 7034267.981423840858042 ], [ 259217.558489334012847, 7034262.978233250789344 ], [ 259212.555298744089669, 7034262.978233250789344 ], [ 259212.555298744089669, 7034252.971852070651948 ], [ 259207.552108154137386, 7034252.971852070651948 ], [ 259207.552108154137386, 7034242.965470891445875 ], [ 259232.568061103869695, 7034242.965470891445875 ], [ 259232.568061103869695, 7034798.319626375101507 ], [ 259177.532964614452794, 7034798.319626375101507 ], [ 259177.532964614452794, 7034793.316435785032809 ], [ 259172.529774024500512, 7034793.316435785032809 ], [ 259172.529774024500512, 7034798.319626375101507 ], [ 259127.501058714988176, 7034798.319626375101507 ], [ 259127.501058714988176, 7034793.316435785032809 ], [ 259107.488296355179045, 7034793.316435785032809 ], [ 259107.488296355179045, 7034788.313245194964111 ], [ 259092.478724585351301, 7034788.313245194964111 ], [ 259092.478724585351301, 7034793.316435785032809 ], [ 259077.469152815523557, 7034793.316435785032809 ], [ 259077.469152815523557, 7034788.313245194964111 ], [ 259067.462771635618992, 7034788.313245194964111 ], [ 259067.462771635618992, 7034793.316435785032809 ], [ 259007.424484556249809, 7034793.316435785032809 ], [ 259007.424484556249809, 7034788.313245194964111 ], [ 259012.427675146202091, 7034788.313245194964111 ], [ 259012.427675146202091, 7034768.300482835620642 ], [ 259007.424484556249809, 7034768.300482835620642 ], [ 259007.424484556249809, 7034763.297292245551944 ], [ 259002.421293966297526, 7034763.297292245551944 ], [ 259002.421293966297526, 7034748.28772047534585 ], [ 258997.418103376345243, 7034748.28772047534585 ], [ 258997.418103376345243, 7034723.271767525933683 ], [ 258992.414912786422065, 7034723.271767525933683 ], [ 258992.414912786422065, 7034718.268576935864985 ], [ 258987.411722196469782, 7034718.268576935864985 ], [ 258987.411722196469782, 7034708.262195755727589 ], [ 258982.408531606517499, 7034708.262195755727589 ], [ 258982.408531606517499, 7034698.255814576521516 ], [ 258977.405341016565217, 7034698.255814576521516 ], [ 258977.405341016565217, 7034683.246242806315422 ], [ 258972.402150426612934, 7034683.246242806315422 ], [ 258972.402150426612934, 7034678.243052216246724 ], [ 258977.405341016565217, 7034678.243052216246724 ], [ 258977.405341016565217, 7034668.236671036109328 ], [ 258972.402150426612934, 7034668.236671036109328 ], [ 258972.402150426612934, 7034648.223908676765859 ], [ 258977.405341016565217, 7034648.223908676765859 ], [ 258977.405341016565217, 7034623.207955727353692 ], [ 258982.408531606517499, 7034623.207955727353692 ], [ 258982.408531606517499, 7034613.201574547216296 ], [ 258987.411722196469782, 7034613.201574547216296 ], [ 258987.411722196469782, 7034608.198383957147598 ], [ 258982.408531606517499, 7034608.198383957147598 ], [ 258982.408531606517499, 7034603.1951933670789 ], [ 258977.405341016565217, 7034603.1951933670789 ], [ 258977.405341016565217, 7034608.198383957147598 ], [ 258972.402150426612934, 7034608.198383957147598 ], [ 258972.402150426612934, 7034613.201574547216296 ], [ 258967.398959836689755, 7034613.201574547216296 ], [ 258967.398959836689755, 7034618.204765137284994 ], [ 258962.395769246737473, 7034618.204765137284994 ], [ 258962.395769246737473, 7034623.207955727353692 ], [ 258957.39257865678519, 7034623.207955727353692 ], [ 258957.39257865678519, 7034638.217527496628463 ], [ 258952.389388066832907, 7034638.217527496628463 ], [ 258952.389388066832907, 7034643.220718086697161 ], [ 258947.386197476880625, 7034643.220718086697161 ], [ 258947.386197476880625, 7034658.230289856903255 ], [ 258942.383006886928342, 7034658.230289856903255 ], [ 258942.383006886928342, 7034668.236671036109328 ], [ 258937.379816297005164, 7034668.236671036109328 ], [ 258937.379816297005164, 7034678.243052216246724 ], [ 258942.383006886928342, 7034678.243052216246724 ], [ 258942.383006886928342, 7034703.259005166590214 ], [ 258947.386197476880625, 7034703.259005166590214 ], [ 258947.386197476880625, 7034713.265386345796287 ], [ 258952.389388066832907, 7034713.265386345796287 ], [ 258952.389388066832907, 7034723.271767525933683 ], [ 258957.39257865678519, 7034723.271767525933683 ], [ 258957.39257865678519, 7034728.274958116002381 ], [ 258962.395769246737473, 7034728.274958116002381 ], [ 258962.395769246737473, 7034768.300482835620642 ], [ 258942.383006886928342, 7034768.300482835620642 ], [ 258942.383006886928342, 7034773.30367342568934 ], [ 258927.373435117100598, 7034773.30367342568934 ], [ 258927.373435117100598, 7034778.306864015758038 ], [ 258917.367053937196033, 7034778.306864015758038 ], [ 258917.367053937196033, 7034783.310054604895413 ], [ 258907.360672757320572, 7034783.310054604895413 ], [ 258907.360672757320572, 7034788.313245194964111 ], [ 258902.357482167368289, 7034788.313245194964111 ], [ 258902.357482167368289, 7034793.316435785032809 ], [ 258897.354291577416006, 7034793.316435785032809 ], [ 258897.354291577416006, 7034798.319626375101507 ], [ 258797.29047977848677, 7034798.319626375101507 ], [ 258797.29047977848677, 7034783.310054604895413 ], [ 258792.287289188534487, 7034783.310054604895413 ], [ 258792.287289188534487, 7034778.306864015758038 ], [ 258787.284098598582204, 7034778.306864015758038 ], [ 258787.284098598582204, 7034773.30367342568934 ], [ 258782.280908008629922, 7034773.30367342568934 ], [ 258782.280908008629922, 7034778.306864015758038 ], [ 258777.277717418677639, 7034778.306864015758038 ], [ 258777.277717418677639, 7034783.310054604895413 ], [ 258767.271336238802178, 7034783.310054604895413 ], [ 258767.271336238802178, 7034788.313245194964111 ], [ 258762.268145648849895, 7034788.313245194964111 ], [ 258762.268145648849895, 7034793.316435785032809 ], [ 258752.26176446894533, 7034793.316435785032809 ], [ 258752.26176446894533, 7034798.319626375101507 ], [ 258692.22347738960525, 7034798.319626375101507 ] ] ] } }
]
}
