{
"type": "FeatureCollection",
"name": "retrogression_parallel_component_streams_subset_1",
"crs": { "type": "name", "properties": { "name": "urn:ogc:def:crs:EPSG::25833" } },
"features": [
{ "type": "Feature", "properties": { "id": 0, "slope": 1 }, "geometry": { "type": "Polygon", "coordinates": [ [ [ 258692.22347738960525, 7034798.319626375101507 ], [ 258692.22347738960525, 7034493.125000388361514 ], [ 258712.236239749385277, 7034493.125000388361514 ], [ 258712.236239749385277, 7034488.121809798292816 ], [ 258697.226667979528429, 7034488.121809798292816 ], [ 258697.226667979528429, 7034483.118619208224118 ], [ 258692.22347738960525, 7034483.118619208224118 ], [ 258692.22347738960525, 7034242.965470891445875 ], [ 258942.383006886928342, 7034242.965470891445875 ], [ 258942.383006886928342, 7034247.968661480583251 ], [ 258947.386197476880625, 7034247.968661480583251 ], [ 258947.386197476880625, 7034262.978233250789344 ], [ 258942.383006886928342, 7034262.978233250789344 ], [ 258942.383006886928342, 7034272.98461443092674 ], [ 258947.386197476880625, 7034272.98461443092674 ], [ 258947.386197476880625, 7034303.003757970407605 ], [ 258957.39257865678519, 7034303.003757970407605 ], [ 258957.39257865678519, 7034298.000567380338907 ], [ 258977.405341016565217, 7034298.000567380338907 ], [ 258977.405341016565217, 7034303.003757970407605 ], [ 258982.408531606517499, 7034303.003757970407605 ], [ 258982.408531606517499, 7034308.006948560476303 ], [ 258987.411722196469782, 7034308.006948560476303 ], [ 258987.411722196469782, 7034318.013329740613699 ], [ 258992.414912786422065, 7034318.013329740613699 ], [ 258992.414912786422065, 7034323.016520330682397 ], [ 258997.418103376345243, 7034323.016520330682397 ], [ 258997.418103376345243, 7034333.02290150988847 ], [ 258992.414912786422065, 7034333.02290150988847 ], [ 258992.414912786422065, 7034338.026092099957168 ], [ 258987.411722196469782, 7034338.026092099957168 ], [ 258987.411722196469782, 7034348.032473280094564 ], [ 258997.418103376345243, 7034348.032473280094564 ], [ 258997.418103376345243, 7034343.029282690025866 ], [ 259022.434056326106656, 7034343.029282690025866 ], [ 259022.434056326106656, 7034368.045235639438033 ], [ 259027.437246916029835, 7034368.045235639438033 ], [ 259027.437246916029835, 7034383.054807409644127 ], [ 259032.440437505982118, 7034383.054807409644127 ], [ 259032.440437505982118, 7034393.061188589781523 ], [ 259037.4436280959344, 7034393.061188589781523 ], [ 259037.4436280959344, 7034403.067569768987596 ], [ 259042.446818685886683, 7034403.067569768987596 ], [ 259042.446818685886683, 7034413.073950949124992 ], [ 259032.440437505982118, 7034413.073950949124992 ], [ 259032.440437505982118, 7034418.07714153919369 ], [ 259027.437246916029835, 7034418.07714153919369 ], [ 259027.437246916029835, 7034428.083522719331086 ], [ 259022.434056326106656, 7034428.083522719331086 ], [ 259022.434056326106656, 7034433.086713309399784 ], [ 259017.430865736154374, 7034433.086713309399784 ], [ 259017.430865736154374, 7034443.093094488605857 ], [ 259012.427675146202091, 7034443.093094488605857 ], [ 259012.427675146202091, 7034448.096285078674555 ], [ 259002.421293966297526, 7034448.096285078674555 ], [ 259002.421293966297526, 7034453.099475668743253 ], [ 259007.424484556249809, 7034453.099475668743253 ], [ 259007.424484556249809, 7034458.102666258811951 ], [ 259012.427675146202091, 7034458.102666258811951 ], [ 259012.427675146202091, 7034463.105856848880649 ], [ 259017.430865736154374, 7034463.105856848880649 ], [ 259017.430865736154374, 7034468.109047438949347 ], [ 259022.434056326106656, 7034468.109047438949347 ], [ 259022.434056326106656, 7034473.112238029018044 ], [ 259027.437246916029835, 7034473.112238029018044 ], [ 259027.437246916029835, 7034478.11542861815542 ], [ 259032.440437505982118, 7034478.11542861815542 ], [ 259032.440437505982118, 7034473.112238029018044 ], [ 259037.4436280959344, 7034473.112238029018044 ], [ 259037.4436280959344, 7034468.109047438949347 ], [ 259047.450009275838966, 7034468.109047438949347 ], [ 259047.450009275838966, 7034463.105856848880649 ], [ 259062.45958104566671, 7034463.105856848880649 ], [ 259062.45958104566671, 7034458.102666258811951 ], [ 259077.469152815523557, 7034458.102666258811951 ], [ 259077.469152815523557, 7034453.099475668743253 ], [ 259087.475533995399019, 7034453.099475668743253 ], [ 259087.475533995399019, 7034448.096285078674555 ], [ 259092.478724585351301, 7034448.096285078674555 ], [ 259092.478724585351301, 7034453.099475668743253 ], [ 259117.494677535083611, 7034453.099475668743253 ], [ 259117.494677535083611, 7034463.105856848880649 ], [ 259122.497868125035893, 7034463.105856848880649 ], [ 259122.497868125035893, 7034468.109047438949347 ], [ 259132.504249304911355, 7034468.109047438949347 ], [ 259132.504249304911355, 7034488.121809798292816 ], [ 259137.507439894863637, 7034488.121809798292816 ], [ 259137.507439894863637, 7034503.131381568498909 ], [ 259142.51063048481592, 7034503.131381568498909 ], [ 259142.51063048481592, 7034513.137762748636305 ], [ 259147.513821074768202, 7034513.137762748636305 ], [ 259147.513821074768202, 7034498.128190978430212 ], [ 259152.517011664720485, 7034498.128190978430212 ], [ 259152.517011664720485, 7034488.121809798292816 ], [ 259157.520202254672768, 7034488.121809798292816 ], [ 259157.520202254672768, 7034483.118619208224118 ], [ 259182.536155204405077, 7034483.118619208224118 ], [ 259182.536155204405077, 7034488.121809798292816 ], [ 259207.552108154137386, 7034488.121809798292816 ], [ 259207.552108154137386, 7034493.125000388361514 ], [ 259217.558489334012847, 7034493.125000388361514 ], [ 259217.558489334012847, 7034488.121809798292816 ], [ 259227.564870513917413, 7034488.121809798292816 ], [ 259227.564870513917413, 7034478.11542861815542 ], [ 259217.558489334012847, 7034478.11542861815542 ], [ 259217.558489334012847, 7034473.112238029018044 ], [ 259202.548917564185103, 7034473.112238029018044 ], [ 259202.548917564185103, 7034478.11542861815542 ], [ 259187.539345794328256, 7034478.11542861815542 ], [ 259187.539345794328256, 7034473.112238029018044 ], [ 259177.532964614452794, 7034473.112238029018044 ], [ 259177.532964614452794, 7034468.109047438949347 ], [ 259172.529774024500512, 7034468.109047438949347 ], [ 259172.529774024500512, 7034463.105856848880649 ], [ 259162.523392844595946, 7034463.105856848880649 ], [ 259162.523392844595946, 7034458.102666258811951 ], [ 259157.520202254672768, 7034458.102666258811951 ], [ 259157.520202254672768, 7034453.099475668743253 ], [ 259152.517011664720485, 7034453.099475668743253 ], [ 259152.517011664720485, 7034443.093094488605857 ], [ 259147.513821074768202, 7034443.093094488605857 ], [ 259147.513821074768202, 7034438.089903898537159 ], [ 259142.51063048481592, 7034438.089903898537159 ], [ 259142.51063048481592, 7034408.070760359056294 ], [ 259147.513821074768202, 7034408.070760359056294 ], [ 259147.513821074768202, 7034403.067569768987596 ], [ 259152.517011664720485, 7034403.067569768987596 ], [ 259152.517011664720485, 7034393.061188589781523 ], [ 259157.520202254672768, 7034393.061188589781523 ], [ 259157.520202254672768, 7034388.057997999712825 ], [ 259162.523392844595946, 7034388.057997999712825 ], [ 259162.523392844595946, 7034378.051616819575429 ], [ 259167.526583434548229, 7034378.051616819575429 ], [ 259167.526583434548229, 7034368.045235639438033 ], [ 259172.529774024500512, 7034368.045235639438033 ], [ 259172.529774024500512, 7034358.03885446023196 ], [ 259177.532964614452794, 7034358.03885446023196 ], [ 259177.532964614452794, 7034348.032473280094564 ], [ 259182.536155204405077, 7034348.032473280094564 ], [ 259182.536155204405077, 7034338.026092099957168 ], [ 259187.539345794328256, 7034338.026092099957168 ], [ 259187.539345794328256, 7034333.02290150988847 ], [ 259197.545726974232821, 7034333.02290150988847 ], [ 259197.545726974232821, 7034318.013329740613699 ], [ 259202.548917564185103, 7034318.013329740613699 ], [ 259202.548917564185103, 7034308.006948560476303 ], [ 259207.552108154137386, 7034308.006948560476303 ], [ 259207.552108154137386, 7034298.000567380338907 ], [ 259212.555298744089669, 7034298.000567380338907 ], [ 259212.555298744089669, 7034287.994186200201511 ], [ 259217.558489334012847, 7034287.994186200201511 ], [ 259217.558489334012847, 7034282.990995611064136 ], [ 259222.56167992396513, 7034282.990995611064136 ], [ 259222.56167992396513, 7034267.981423840858042 ], [ 259217.558489334012847, 7034267.981423840858042 ], [ 259217.558489334012847, 7034262.978233250789344 ], [ 259212.555298744089669, 7034262.978233250789344 ], [ 259212.555298744089669, 7034252.971852070651948 ], [ 259207.552108154137386, 7034252.971852070651948 ], [ 259207.552108154137386, 7034242.965470891445875 ], [ 259232.568061103869695, 7034242.965470891445875 ], [ 259232.568061103869695, 7034798.319626375101507 ], [ 259177.532964614452794, 7034798.319626375101507 ], [ 259177.532964614452794, 7034793.316435785032809 ], [ 259172.529774024500512, 7034793.316435785032809 ], [ 259172.529774024500512, 7034798.319626375101507 ], [ 259127.501058714988176, 7034798.319626375101507 ], [ 259127.501058714988176, 7034793.316435785032809 ], [ 259107.488296355179045, 7034793.316435785032809 ], [ 259107.488296355179045, 7034788.313245194964111 ], [ 259092.478724585351301, 7034788.313245194964111 ], [ 259092.478724585351301, 7034793.316435785032809 ], [ 259077.469152815523557, 7034793.316435785032809 ], [ 259077.469152815523557, 7034788.313245194964111 ], [ 259067.462771635618992, 7034788.313245194964111 ], [ 259067.462771635618992, 7034793.316435785032809 ], [ 259007.424484556249809, 7034793.316435785032809 ], [ 259007.424484556249809, 7034788.313245194964111 ], [ 259012.427675146202091, 7034788.313245194964111 ], [ 259012.427675146202091, 7034768.300482835620642 ], [ 259007.424484556249809, 7034768.300482835620642 ], [ 259007.424484556249809, 7034763.297292245551944 ], [ 259002.421293966297526, 7034763.297292245551944 ], [ 259002.421293966297526, 7034748.28772047534585 ], [ 258997.418103376345243, 7034748.28772047534585 ], [ 258997.418103376345243, 7034723.271767525933683 ], [ 258992.414912786422065, 7034723.271767525933683 ], [ 258992.414912786422065, 7034718.268576935864985 ], [ 258987.411722196469782, 7034718.268576935864985 ], [ 258987.411722196469782, 7034708.262195755727589 ], [ 258982.408531606517499, 7034708.262195755727589 ], [ 258982.408531606517499, 7034698.255814576521516 ], [ 258977.405341016565217, 7034698.255814576521516 ], [ 258977.405341016565217, 7034683.246242806315422 ], [ 258972.402150426612934, 7034683.246242806315422 ], [ 258972.402150426612934, 7034678.243052216246724 ], [ 258977.405341016565217, 7034678.243052216246724 ], [ 258977.405341016565217, 7034668.236671036109328 ], [ 258972.402150426612934, 7034668.236671036109328 ], [ 258972.402150426612934, 7034648.223908676765859 ], [ 258977.405341016565217, 7034648.223908676765859 ], [ 258977.405341016565217, 7034623.207955727353692 ], [ 258982.408531606517499, 7034623.207955727353692 ], [ 258982.408531606517499, 7034613.201574547216296 ], [ 258987.411722196469782, 7034613.201574547216296 ], [ 258987.411722196469782, 7034608.198383957147598 ], [ 258982.408531606517499, 7034608.198383957147598 ], [ 258982.408531606517499, 7034603.1951933670789 ], [ 258977.405341016565217, 7034603.1951933670789 ], [ 258977.405341016565217, 7034608.198383957147598 ], [ 258972.402150426612934, 7034608.198383957147598 ], [ 258972.402150426612934, 7034613.201574547216296 ], [ 258967.398959836689755, 7034613.201574547216296 ], [ 258967.398959836689755, 7034618.204765137284994 ], [ 258962.395769246737473, 7034618.204765137284994 ], [ 258962.395769246737473, 7034623.207955727353692 ], [ 258957.39257865678519, 7034623.207955727353692 ], [ 258957.39257865678519, 7034638.217527496628463 ], [ 258952.389388066832907, 7034638.217527496628463 ], [ 258952.389388066832907, 7034643.220718086697161 ], [ 258947.386197476880625, 7034643.220718086697161 ], [ 258947.386197476880625, 7034658.230289856903255 ], [ 258942.383006886928342, 7034658.230289856903255 ], [ 258942.383006886928342, 7034668.236671036109328 ], [ 258937.379816297005164, 7034668.236671036109328 ], [ 258937.379816297005164, 7034678.243052216246724 ], [ 258942.383006886928342, 7034678.243052216246724 ], [ 258942.383006886928342, 7034703.259005166590214 ], [ 258947.386197476880625, 7034703.259005166590214 ], [ 258947.386197476880625, 7034713.265386345796287 ], [ 258952.389388066832907, 7034713.265386345796287 ], [ 258952.389388066832907, 7034723.271767525933683 ], [ 258957.39257865678519, 7034723.271767525933683 ], [ 258957.39257865678519, 7034728.274958116002381 ], [ 258962.395769246737473, 7034728.274958116002381 ], [ 258962.395769246737473, 7034768.300482835620642 ], [ 258942.383006886928342, 7034768.300482835620642 ], [ 258942.383006886928342, 7034773.30367342568934 ], [ 258927.373435117100598, 7034773.30367342568934 ], [ 258927.373435117100598, 7034778.306864015758038 ], [ 258917.367053937196033, 7034778.306864015758038 ], [ 258917.367053937196033, 7034783.310054604895413 ], [ 258907.360672757320572, 7034783.310054604895413 ], [ 258907.360672757320572, 7034788.313245194964111 ], [ 258902.357482167368289, 7034788.313245194964111 ], [ 258902.357482167368289, 7034793.316435785032809 ], [ 258897.354291577416006, 7034793.316435785032809 ], [ 258897.354291577416006, 7034798.319626375101507 ], [ 258797.29047977848677, 7034798.319626375101507 ], [ 258797.29047977848677, 7034783.310054604895413 ], [ 258792.287289188534487, 7034783.310054604895413 ], [ 258792.287289188534487, 7034778.306864015758038 ], [ 258787.284098598582204, 7034778.306864015758038 ], [ 258787.284098598582204, 7034773.30367342568934 ], [ 258782.280908008629922, 7034773.30367342568934 ], [ 258782.280908008629922, 7034778.306864015758038 ], [ 258777.277717418677639, 7034778.306864015758038 ], [ 258777.277717418677639, 7034783.310054604895413 ], [ 258767.271336238802178, 7034783.310054604895413 ], [ 258767.271336238802178, 7034788.313245194964111 ], [ 258762.268145648849895, 7034788.313245194964111 ], [ 258762.268145648849895, 7034793.316435785032809 ], [ 258752.26176446894533, 7034793.316435785032809 ], [ 258752.26176446894533, 7034798.319626375101507 ], [ 258692.22347738960525, 7034798.319626375101507 ] ] ] } }
]
}
