{
"type": "FeatureCollection",
"name": "streams_subset",
"crs": { "type": "name", "properties": { "name": "urn:ogc:def:crs:EPSG::25833" } },
"features": [
{ "type": "Feature", "properties": { "fid": 1337, "objtype": "ElvBekk", "lokalid": "31a55791-2638-450f-8cd9-f96a774fdd9e", "medium": "T", "vannbredde": 1.0, "vannsperretype": null, "arealRegineEnhet_km2": null, "elveordenStrahler": null, "catch_area": 0.15601497771194142, "water_depth": 0.42897769677060588, "gradient": 0.0, "aggressive": 0.0, "aggressiveness": 0.0, "id": 1337 }, "geometry": { "type": "MultiLineString", "coordinates": [ [ [ 257735.941111860942328, 7038991.358672908507288 ], [ 257712.889899999834597, 7038954.486999999731779 ], [ 257696.134700000286102, 7038926.772900000214577 ], [ 257682.610357148078037, 7038906.788625663146377 ] ] ] } },
{ "type": "Feature", "properties": { "fid": 946, "objtype": "ElvBekk", "lokalid": "ab9aa5fb-cf8c-41b4-a6ff-478fe05f0c53", "medium": "T", "vannbredde": 1.0, "vannsperretype": null, "arealRegineEnhet_km2": null, "elveordenStrahler": null, "catch_area": 3.4042001557190344, "water_depth": 0.89899737501892696, "gradient": 0.0, "aggressive": 0.0, "aggressiveness": 0.0, "id": 946 }, "geometry": { "type": "MultiLineString", "coordinates": [ [ [ 259389.347278224246111, 7033708.562726125121117 ], [ 259390.137199999764562, 7033707.724800001829863 ], [ 259393.669900000095367, 7033703.282400000840425 ], [ 259397.020600000396371, 7033699.470100000500679 ], [ 259399.159900000318885, 7033697.4199 ], [ 259402.995900000445545, 7033695.350999999791384 ], [ 259407.830699999816716, 7033692.786400001496077 ], [ 259411.925200000405312, 7033688.974599998444319 ], [ 259413.203900000080466, 7033687.28660000115633 ], [ 259415.542600000277162, 7033684.684999998658895 ], [ 259416.730800000019372, 7033682.995400000363588 ], [ 259421.50760000012815, 7033678.315499998629093 ], [ 259425.059299999848008, 7033676.002000000327826 ], [ 259428.340699999593198, 7033672.949999999254942 ], [ 259432.211900000460446, 7033670.184399999678135 ], [ 259435.0, 7033669.510156370699406 ] ] ] } },
{ "type": "Feature", "properties": { "fid": 309, "objtype": "ElvBekk", "lokalid": "ee1cb6e5-40eb-4bf3-91e9-4f0c22749f18", "medium": "T", "vannbredde": 1.0, "vannsperretype": null, "arealRegineEnhet_km2": null, "elveordenStrahler": null, "catch_area": 0.088149241498214792, "water_depth": 0.3740479352883721, "gradient": 0.0, "aggressive": 0.0, "aggressiveness": 0.0, "id": 309 }, "geometry": { "type": "MultiLineString", "coordinates": [ [ [ 256879.047803194494918, 7036644.495095625519753 ], [ 256883.306400000117719, 7036645.1217 ], [ 256888.862099999561906, 7036647.022100001573563 ], [ 256891.829800000414252, 7036648.120299998670816 ], [ 256902.432099999859929, 7036651.315699998289347 ], [ 256905.920699999667704, 7036652.71680000051856 ], [ 256907.209999999962747, 7036652.746500000357628 ], [ 256910.836400000378489, 7036651.762600000947714 ], [ 256911.750599999912083, 7036650.581199999898672 ], [ 256912.987200000323355, 7036648.123199999332428 ], [ 256914.915000000037253, 7036645.962099999189377 ], [ 256932.127799999900162, 7036636.606100000441074 ], [ 256939.968500000424683, 7036634.904800001531839 ], [ 256950.374400000087917, 7036631.5152000002563 ], [ 256952.864699999801815, 7036630.205800000578165 ], [ 256955.235799999907613, 7036628.163899999111891 ], [ 256968.555030064919265, 7036620.971651145257056 ] ] ] } }
]
}
